{"type": "Feature", "properties": {"name": "Washington Dulles International Airport", "osm": "rel/949847"}, "geometry": {"type": "Polygon", "coordinates": [[[-77.4922285, 38.9501532], [-77.4920022, 38.9500929], [-77.4917449, 38.9500244], [-77.4867043, 38.9485354], [-77.4789904, 38.950814], [-77.4780883, 38.9510805], [-77.4779397, 38.9505806], [-77.4778749, 38.9505387], [-77.4769337, 38.9507833], [-77.4769196, 38.951467], [-77.4769191, 38.9520495], [-77.4768228, 38.9583791], [-77.4769274, 38.9583791], [-77.4769295, 38.9584816], [-77.4768207, 38.9584963], [-77.4768228, 38.9590799], [-77.4768249, 38.9593811], [-77.4768438, 38.9594376], [-77.4768019, 38.9594815], [-77.4767977, 38.9596279], [-77.4768417, 38.9596446], [-77.4768354, 38.9597325], [-77.4767956, 38.959766], [-77.4767956, 38.9602136], [-77.4767789, 38.9615105], [-77.4767622, 38.9631964], [-77.4767141, 38.9658362], [-77.4769504, 38.9659303], [-77.476986, 38.9658718], [-77.4770948, 38.9659136], [-77.4770655, 38.9659596], [-77.477122, 38.9659743], [-77.4770953, 38.9660219], [-77.4770634, 38.9660789], [-77.47685, 38.965991], [-77.4767141, 38.9659973], [-77.4767064, 38.9666349], [-77.4770525, 38.9672271], [-77.4777177, 38.9675179], [-77.477929, 38.9677082], [-77.4781118, 38.9679302], [-77.4782762, 38.9686035], [-77.4782241, 38.9725035], [-77.476698, 38.9736708], [-77.4764348, 38.9741915], [-77.4764266, 38.9748776], [-77.4752808, 38.974862], [-77.4752703, 38.9761338], [-77.475212, 38.976138], [-77.475209, 38.976205], [-77.4752053, 38.9762864], [-77.4752704, 38.976289], [-77.4752551, 38.9780866], [-77.4750364, 38.9780795], [-77.475035, 38.9781771], [-77.4750009, 38.980644], [-77.4742771, 38.9808343], [-77.4741788, 38.9808803], [-77.4747971, 38.9825429], [-77.474632, 38.9827422], [-77.4741934, 38.9831639], [-77.474004, 38.983339], [-77.4734147, 38.9838631], [-77.4724865, 38.9846018], [-77.4719052, 38.9850541], [-77.4706542, 38.9860273], [-77.4695295, 38.9868425], [-77.4687524, 38.9873411], [-77.4684996, 38.9870947], [-77.4683957, 38.9871616], [-77.4682849, 38.987226], [-77.4685358, 38.9874752], [-77.4678209, 38.9879078], [-77.4662653, 38.9888064], [-77.4658468, 38.9890378], [-77.4656819, 38.9890795], [-77.4655974, 38.9891337], [-77.4654472, 38.9892473], [-77.4644221, 38.9897748], [-77.4641062, 38.989897], [-77.4639606, 38.9899221], [-77.4638569, 38.9899523], [-77.4635831, 38.9900445], [-77.463236, 38.9901614], [-77.4629114, 38.9901347], [-77.4615693, 38.9901748], [-77.461417, 38.9901547], [-77.4611493, 38.990046], [-77.4610485, 38.9899761], [-77.460915, 38.9898836], [-77.4605803, 38.9892645], [-77.4602674, 38.9886821], [-77.4600817, 38.9883642], [-77.4600783, 38.9882136], [-77.4600197, 38.9881349], [-77.4599528, 38.9881349], [-77.4596432, 38.9878722], [-77.4593738, 38.9877149], [-77.4589772, 38.987561], [-77.4584852, 38.9874488], [-77.4581087, 38.9873719], [-77.4575967, 38.9872229], [-77.4574109, 38.9871493], [-77.4573758, 38.9870757], [-77.4573172, 38.9870506], [-77.4572218, 38.9870506], [-77.4569357, 38.9869033], [-77.4566144, 38.986664], [-77.4563015, 38.9863678], [-77.456027, 38.9859913], [-77.4559266, 38.9858089], [-77.4559802, 38.9857838], [-77.4559433, 38.9857219], [-77.4558881, 38.9857236], [-77.4556974, 38.9853722], [-77.4549728, 38.9841004], [-77.4537378, 38.9818915], [-77.4533462, 38.9811552], [-77.4530668, 38.9807201], [-77.4527622, 38.9803051], [-77.4524878, 38.9799704], [-77.4524928, 38.9799487], [-77.452451, 38.9799085], [-77.4524242, 38.9799085], [-77.4521714, 38.9796223], [-77.4521934, 38.9788571], [-77.4522293, 38.9782002], [-77.4522019, 38.9776194], [-77.4521736, 38.9775208], [-77.4521193, 38.9774537], [-77.4519333, 38.977437], [-77.4512801, 38.9774424], [-77.4507058, 38.9774391], [-77.4499829, 38.9774339], [-77.4498394, 38.9766113], [-77.4497065, 38.9759705], [-77.449649, 38.9756897], [-77.4496222, 38.9754852], [-77.4496181, 38.9753821], [-77.4496704, 38.9749474], [-77.4496315, 38.9746565], [-77.4496382, 38.9745845], [-77.4496852, 38.9744261], [-77.4496852, 38.9736003], [-77.4496919, 38.9734523], [-77.4496616, 38.973372], [-77.4495457, 38.9733042], [-77.4494518, 38.9732959], [-77.4494098, 38.9731692], [-77.4494098, 38.9731378], [-77.4491915, 38.973057], [-77.4484423, 38.9727796], [-77.4484342, 38.9731804], [-77.4473432, 38.9732078], [-77.4471748, 38.973212], [-77.4467033, 38.9727946], [-77.4467027, 38.9720513], [-77.4465766, 38.972009], [-77.4465384, 38.9713998], [-77.4457993, 38.9713305], [-77.445659, 38.9714671], [-77.4454535, 38.9714254], [-77.4453566, 38.971145], [-77.4453739, 38.9702849], [-77.4449646, 38.9701328], [-77.4449604, 38.9693857], [-77.4451759, 38.9688641], [-77.4452229, 38.9687113], [-77.4452203, 38.9671059], [-77.4452667, 38.9670351], [-77.4448672, 38.967029], [-77.4446872, 38.9670645], [-77.443739, 38.9671016], [-77.4432209, 38.967066], [-77.4431866, 38.9671602], [-77.4432918, 38.9672342], [-77.4433763, 38.9673593], [-77.4433124, 38.9673947], [-77.443293, 38.9689612], [-77.4432072, 38.9690018], [-77.4429978, 38.9690719], [-77.4426467, 38.9690268], [-77.4415729, 38.9684798], [-77.4410191, 38.9682015], [-77.4409935, 38.9682359], [-77.4410446, 38.9683107], [-77.4409946, 38.9683419], [-77.4402273, 38.9678466], [-77.4398748, 38.9676909], [-77.4396131, 38.9674788], [-77.4387935, 38.9671643], [-77.4378219, 38.9669701], [-77.437285, 38.9668036], [-77.4368877, 38.9667572], [-77.4364445, 38.9667074], [-77.4362078, 38.9666145], [-77.4362019, 38.9663983], [-77.4361942, 38.9661148], [-77.436179, 38.9655535], [-77.4316545, 38.9655423], [-77.4315129, 38.9635611], [-77.4327469, 38.963169], [-77.4366191, 38.9632108], [-77.4367936, 38.9632056], [-77.4369628, 38.9631961], [-77.438101, 38.9630905], [-77.4385498, 38.9630461], [-77.4387985, 38.963042], [-77.4390626, 38.9630528], [-77.4393324, 38.9630726], [-77.4395849, 38.9631116], [-77.4416259, 38.9635504], [-77.442071, 38.9636661], [-77.4424998, 38.9637944], [-77.4439649, 38.9643528], [-77.4451571, 38.9645203], [-77.446408, 38.9643927], [-77.4464091, 38.9639774], [-77.4468218, 38.9639089], [-77.4468382, 38.9619696], [-77.4472925, 38.960851], [-77.4471967, 38.9582994], [-77.4424928, 38.9582994], [-77.4422903, 38.9582994], [-77.4422819, 38.9579131], [-77.4414897, 38.9581026], [-77.4402615, 38.9585763], [-77.44008, 38.9586672], [-77.4399753, 38.9587142], [-77.4399518, 38.9587298], [-77.4398806, 38.9588089], [-77.4397934, 38.9588697], [-77.4396671, 38.958909], [-77.4395381, 38.9589613], [-77.4393342, 38.9591003], [-77.4392302, 38.9591641], [-77.4391609, 38.9591981], [-77.4390052, 38.9592197], [-77.4388484, 38.9592246], [-77.4384112, 38.9592255], [-77.4383728, 38.959226], [-77.4382493, 38.9592274], [-77.4382339, 38.9594462], [-77.4381218, 38.9595014], [-77.4379086, 38.9600998], [-77.4373372, 38.9605087], [-77.4366084, 38.961036], [-77.4361269, 38.9613795], [-77.4360027, 38.9614362], [-77.4359685, 38.9616889], [-77.4359799, 38.9617587], [-77.4358169, 38.961817], [-77.435621, 38.9618612], [-77.4351163, 38.961869], [-77.4324677, 38.9618167], [-77.4321748, 38.9618037], [-77.4319081, 38.9617252], [-77.4316911, 38.9616546], [-77.4311499, 38.9612703], [-77.4310348, 38.9612833], [-77.4307289, 38.9610715], [-77.4307132, 38.9610375], [-77.4306864, 38.9610173], [-77.4309298, 38.9608354], [-77.4309567, 38.9606894], [-77.430895, 38.9605184], [-77.4300255, 38.9593273], [-77.4297741, 38.9589883], [-77.4295506, 38.9583295], [-77.429692, 38.9580849], [-77.4298405, 38.9574771], [-77.4299126, 38.9571465], [-77.4299985, 38.9568148], [-77.4300084, 38.9566108], [-77.4300189, 38.9557269], [-77.4300466, 38.952618], [-77.4300621, 38.9518833], [-77.4299462, 38.951902], [-77.4298669, 38.951865], [-77.4298701, 38.9518136], [-77.4300916, 38.9516697], [-77.430094, 38.9513608], [-77.4300968, 38.95119], [-77.4301388, 38.9510325], [-77.4302204, 38.9508547], [-77.4303312, 38.9507082], [-77.4303919, 38.9506539], [-77.4305237, 38.9505702], [-77.4306994, 38.9504489], [-77.4308458, 38.9503087], [-77.4311094, 38.9500786], [-77.4313374, 38.9498674], [-77.431534, 38.9497084], [-77.4316177, 38.9495473], [-77.4316386, 38.9493821], [-77.4315716, 38.949152], [-77.4315638, 38.9491381], [-77.4314733, 38.9489763], [-77.4314231, 38.9488947], [-77.4314189, 38.9487399], [-77.431193, 38.9485558], [-77.4311742, 38.9484826], [-77.4310905, 38.9484094], [-77.4309588, 38.9483969], [-77.4308563, 38.9483467], [-77.4307224, 38.9482797], [-77.4307433, 38.9482337], [-77.4305216, 38.9481103], [-77.4304149, 38.9480852], [-77.430354, 38.9480574], [-77.4302727, 38.9480203], [-77.4300321, 38.9479011], [-77.4300342, 38.9478697], [-77.4300614, 38.9478321], [-77.4300698, 38.9469975], [-77.4300321, 38.9466774], [-77.4300233, 38.9464004], [-77.430007, 38.9458909], [-77.4299798, 38.9458868], [-77.4299777, 38.944182], [-77.4300342, 38.9433411], [-77.4300154, 38.942563], [-77.4299924, 38.9412682], [-77.4300175, 38.9402516], [-77.4300719, 38.9402307], [-77.430099, 38.9381452], [-77.4301365, 38.9368505], [-77.4300283, 38.9368473], [-77.4300167, 38.9363028], [-77.4301338, 38.9362986], [-77.4301694, 38.9355016], [-77.4302091, 38.9354828], [-77.430189, 38.935451], [-77.4300635, 38.9354468], [-77.4300656, 38.9354217], [-77.4301702, 38.9353736], [-77.430212, 38.9342504], [-77.4302302, 38.933514], [-77.4302413, 38.9330664], [-77.4302476, 38.93219], [-77.4302643, 38.9316336], [-77.4302727, 38.9309977], [-77.4303166, 38.930914], [-77.4304756, 38.930822], [-77.4306283, 38.9307948], [-77.4309588, 38.9307781], [-77.4311407, 38.9307446], [-77.4313708, 38.930686], [-77.4315842, 38.9305982], [-77.4317934, 38.9304768], [-77.4319356, 38.93032], [-77.4320904, 38.9300627], [-77.4321155, 38.9299497], [-77.4321086, 38.9297869], [-77.4321113, 38.9296778], [-77.4320322, 38.9294607], [-77.431889, 38.9292638], [-77.431693, 38.9291277], [-77.4314608, 38.9290042], [-77.4312913, 38.928931], [-77.4309588, 38.9287762], [-77.4307998, 38.9286947], [-77.4306283, 38.9285524], [-77.4304463, 38.9283558], [-77.4303982, 38.9282491], [-77.4303333, 38.92804], [-77.4303417, 38.9278057], [-77.4303019, 38.9277806], [-77.4303102, 38.9272805], [-77.4303291, 38.9261344], [-77.4303626, 38.9247873], [-77.4303689, 38.9245195], [-77.4304442, 38.92444], [-77.4303793, 38.9236598], [-77.4304003, 38.9228922], [-77.4304233, 38.92216], [-77.4304693, 38.9217229], [-77.4304797, 38.9214907], [-77.4305592, 38.9214217], [-77.4305634, 38.9213045], [-77.4305467, 38.9212857], [-77.4305007, 38.9210702], [-77.4305048, 38.920746], [-77.4305341, 38.9199093], [-77.4305634, 38.9187024], [-77.4305781, 38.9180769], [-77.4306115, 38.9179556], [-77.4306722, 38.9178269], [-77.4307287, 38.9177674], [-77.4309399, 38.9175059], [-77.431101, 38.9173407], [-77.4314503, 38.917121], [-77.4317438, 38.9169696], [-77.432185, 38.9167735], [-77.4325282, 38.9166632], [-77.4327243, 38.9164385], [-77.4329694, 38.9163322], [-77.4332309, 38.9163077], [-77.4345299, 38.9163083], [-77.4350243, 38.9163434], [-77.4351742, 38.9163667], [-77.4353337, 38.9164229], [-77.4354567, 38.9164996], [-77.4355603, 38.9165864], [-77.435656, 38.9166625], [-77.4357138, 38.9166755], [-77.4358094, 38.9166578], [-77.4360524, 38.91654], [-77.4361814, 38.9165033], [-77.4363641, 38.9164803], [-77.4364776, 38.9164846], [-77.4375916, 38.9166349], [-77.4379602, 38.9166715], [-77.4380256, 38.9166715], [-77.4380674, 38.9166898], [-77.4380596, 38.9168127], [-77.4380413, 38.9170506], [-77.4380491, 38.9172598], [-77.4380988, 38.917503], [-77.4381799, 38.9177357], [-77.4383603, 38.9180076], [-77.4384989, 38.9181802], [-77.4385956, 38.9182978], [-77.438697, 38.9184225], [-77.4388172, 38.9185696], [-77.4389966, 38.918905], [-77.4392715, 38.9193196], [-77.439299, 38.9193095], [-77.4393331, 38.9193739], [-77.4393878, 38.9193556], [-77.4394193, 38.9193457], [-77.4395205, 38.9193138], [-77.4395728, 38.9192889], [-77.4396885, 38.9192339], [-77.4396389, 38.919145], [-77.4395264, 38.9190116], [-77.4390035, 38.9184521], [-77.4388309, 38.9182665], [-77.4386348, 38.9180311], [-77.4384989, 38.9178638], [-77.438389, 38.917686], [-77.4383367, 38.9175291], [-77.4382662, 38.917265], [-77.4382583, 38.9169251], [-77.4383106, 38.9162558], [-77.4383728, 38.9162568], [-77.4394114, 38.9162741], [-77.4396545, 38.9162715], [-77.4398611, 38.916227], [-77.4400441, 38.9161146], [-77.4403579, 38.9158949], [-77.4405331, 38.9157224], [-77.4406507, 38.9156021], [-77.4407632, 38.9155341], [-77.4407958, 38.9155214], [-77.4408704, 38.9154923], [-77.4409331, 38.9154583], [-77.4416182, 38.9148909], [-77.4417568, 38.9147837], [-77.4419607, 38.9146634], [-77.4421856, 38.914585], [-77.4423424, 38.9145484], [-77.4427007, 38.9145405], [-77.4434119, 38.9145562], [-77.4447035, 38.9145824], [-77.4448709, 38.9145301], [-77.4450565, 38.9144247], [-77.4454194, 38.9145778], [-77.4457555, 38.9147268], [-77.4461949, 38.9149214], [-77.4466631, 38.9142966], [-77.447133, 38.91427], [-77.4471297, 38.9146831], [-77.4476114, 38.9147787], [-77.4475793, 38.9148521], [-77.4475702, 38.9148728], [-77.4475056, 38.9148899], [-77.4459983, 38.9168558], [-77.4457896, 38.9171469], [-77.4455334, 38.9173012], [-77.4454105, 38.9174188], [-77.4453712, 38.9175443], [-77.4453373, 38.917743], [-77.4450862, 38.9180986], [-77.4452474, 38.9181495], [-77.4457979, 38.9183771], [-77.4471584, 38.9189628], [-77.4473659, 38.9190364], [-77.4482679, 38.9193544], [-77.4484647, 38.9193981], [-77.4486879, 38.9194263], [-77.4491514, 38.9194247], [-77.4494744, 38.9194163], [-77.4506175, 38.9194364], [-77.4512867, 38.9194481], [-77.4514206, 38.9194682], [-77.4555288, 38.920013], [-77.45578, 38.9200436], [-77.4558016, 38.9198511], [-77.4561147, 38.9200397], [-77.4566589, 38.9175619], [-77.4567112, 38.9173213], [-77.4567602, 38.9172232], [-77.4603634, 38.9173234], [-77.4605872, 38.917359], [-77.4639619, 38.9181848], [-77.4643594, 38.9183025], [-77.4644457, 38.9183077], [-77.4646444, 38.9183051], [-77.464783, 38.9183626], [-77.4648719, 38.9184228], [-77.4681572, 38.9197615], [-77.4704511, 38.9206525], [-77.4733717, 38.9217869], [-77.4775119, 38.9229282], [-77.48437, 38.9248187], [-77.4844282, 38.924836], [-77.4847728, 38.9249381], [-77.4848197, 38.924952], [-77.4848589, 38.9249782], [-77.4849321, 38.9249939], [-77.4850184, 38.9249965], [-77.4868775, 38.9254854], [-77.4868984, 38.9255377], [-77.486925, 38.925543], [-77.4869507, 38.9255482], [-77.4869575, 38.9249135], [-77.4878298, 38.9254384], [-77.4894756, 38.9264288], [-77.493305, 38.9287331], [-77.4935147, 38.9288713], [-77.4936628, 38.9288866], [-77.4996837, 38.9289275], [-77.511007, 38.9290014], [-77.5114096, 38.9290144], [-77.5117367, 38.9290279], [-77.5117764, 38.9291068], [-77.51183, 38.9291006], [-77.5122526, 38.9290316], [-77.5170134, 38.9290588], [-77.517323, 38.9290609], [-77.5184316, 38.9294813], [-77.518535, 38.9295171], [-77.5185508, 38.9300691], [-77.5184964, 38.9301779], [-77.5184774, 38.9309047], [-77.5184462, 38.9321023], [-77.51844, 38.9325897], [-77.5184337, 38.9329244], [-77.518396, 38.9329683], [-77.518396, 38.9335833], [-77.5183688, 38.9336376], [-77.518373, 38.9338719], [-77.5183458, 38.9339347], [-77.5182933, 38.9351364], [-77.5181875, 38.937894], [-77.5181325, 38.9392626], [-77.5181171, 38.9399375], [-77.5181264, 38.9402796], [-77.5181455, 38.9406187], [-77.5181636, 38.9409134], [-77.5182961, 38.9419674], [-77.5184505, 38.9430929], [-77.5185844, 38.9440879], [-77.5185771, 38.9441761], [-77.5185442, 38.9442397], [-77.5185006, 38.9442783], [-77.5184128, 38.9443174], [-77.5182223, 38.9443445], [-77.5181258, 38.9444363], [-77.518217, 38.9450183], [-77.5182518, 38.9451247], [-77.5183457, 38.9452144], [-77.5186555, 38.9454022], [-77.5186864, 38.945421], [-77.5187373, 38.9454794], [-77.5187863, 38.9455775], [-77.5187935, 38.9457798], [-77.5187977, 38.9460165], [-77.5187752, 38.9462871], [-77.5187518, 38.9464013], [-77.5187172, 38.9465474], [-77.5186398, 38.9467933], [-77.5182919, 38.9475202], [-77.5170019, 38.9500853], [-77.5167709, 38.9504658], [-77.5165635, 38.950748], [-77.5163495, 38.950981], [-77.5161078, 38.9512102], [-77.5157252, 38.951512], [-77.5153846, 38.9517394], [-77.5149506, 38.9519652], [-77.5144835, 38.9521626], [-77.5136451, 38.9524701], [-77.5126795, 38.9528428], [-77.5122416, 38.9530586], [-77.5095803, 38.9545198], [-77.509485, 38.9545605], [-77.5094113, 38.9545678], [-77.5093415, 38.9545636], [-77.5092919, 38.954549], [-77.5091256, 38.9545261], [-77.508789, 38.9545073], [-77.5087085, 38.9545209], [-77.5082725, 38.9546983], [-77.5079991, 38.9547993], [-77.5028543, 38.9533186], [-77.5025731, 38.9532366], [-77.499723, 38.9523699], [-77.4938349, 38.9506281], [-77.4931831, 38.9504354], [-77.4927536, 38.9503084], [-77.4922285, 38.9501532]]]}}