{"type": "FeatureCollection", "features": [{"type": "Feature", "properties": {}, "geometry": {"type": "LineString", "coordinates": [[-122.47282999999999, 37.83189200000001], [-122.472248, 37.832107], [-122.470037, 37.832945], [-122.468079, 37.833687], [-122.453983, 37.839027], [-122.445483, 37.842427], [-122.433625, 37.846912], [-122.424227, 37.85045], [-122.422475, 37.85111], [-122.41871, 37.852491], [-122.418673, 37.852505], [-122.41868513596717, 37.85260743201642]]}}, {"type": "Feature", "properties": {}, "geometry": {"type": "LineString", "coordinates": [[-122.43395293036286, 37.934363007916424], [-122.433883, 37.934224], [-122.433783, 37.934024], [-122.433592, 37.933489], [-122.43261, 37.93074], [-122.432283, 37.929824]]}}, {"type": "Feature", "properties": {}, "geometry": {"type": "LineString", "coordinates": [[-122.42035852914799, 37.8633], [-122.42038, 37.863426], [-122.420836, 37.866247], [-122.422162, 37.874436], [-122.422483, 37.876426], [-122.422683, 37.878126], [-122.424083, 37.884626], [-122.427583, 37.904025], [-122.430183, 37.918425], [-122.432283, 37.929824]]}}, {"type": "Feature", "properties": {}, "geometry": {"type": "LineString", "coordinates": [[-122.432283, 37.929824], [-122.432216, 37.929771], [-122.430362, 37.928304], [-122.430205, 37.928179], [-122.426444, 37.925202], [-122.424602, 37.923744], [-122.422683, 37.922224], [-122.420047, 37.920131], [-122.412142, 37.913855], [-122.409507, 37.911763], [-122.402593, 37.906274], [-122.399382, 37.903725], [-122.38174, 37.889955], [-122.374782, 37.884525], [-122.374582, 37.884364], [-122.373982, 37.883884], [-122.373782, 37.883725]]}}, {"type": "Feature", "properties": {}, "geometry": {"type": "LineString", "coordinates": [[-122.41874556281475, 37.85311745678508], [-122.418782, 37.853425], [-122.418794, 37.853496], [-122.419258, 37.856454], [-122.41982536829035, 37.860070403661254]]}}, {"type": "Feature", "properties": {}, "geometry": {"type": "LineString", "coordinates": [[-122.28178, 37.70823], [-122.29458, 37.70823], [-122.360381, 37.708331], [-122.371681, 37.708331], [-122.375624, 37.708373], [-122.376063, 37.708364], [-122.379401, 37.708406], [-122.379489, 37.708414], [-122.381081, 37.708431], [-122.387482, 37.708331], [-122.388976, 37.708331], [-122.392682, 37.708331], [-122.393226, 37.708282], [-122.39332, 37.708273], [-122.39344389254941, 37.70826159401926]]}}, {"type": "Feature", "properties": {}, "geometry": {"type": "LineString", "coordinates": [[-122.31309872383298, 37.89729887397027], [-122.317113, 37.896408], [-122.329414, 37.893677], [-122.331039, 37.893317], [-122.333398, 37.892794], [-122.335681, 37.892288], [-122.338261, 37.891715], [-122.346, 37.889997], [-122.348581, 37.889425], [-122.35066, 37.888985], [-122.3569, 37.887664], [-122.358981, 37.887225], [-122.361281, 37.886685], [-122.368181, 37.885064], [-122.370482, 37.884525], [-122.371142, 37.884364], [-122.373121, 37.883884], [-122.373782, 37.883725]]}}, {"type": "Feature", "properties": {}, "geometry": {"type": "LineString", "coordinates": [[-122.373782, 37.883725], [-122.372581, 37.880325], [-122.372229, 37.879326], [-122.370676, 37.874927], [-122.369228, 37.870826], [-122.36898, 37.870125], [-122.367781, 37.866726], [-122.3654, 37.860526], [-122.35826, 37.841926], [-122.355881, 37.835727], [-122.354504, 37.832023], [-122.352634, 37.826988], [-122.350376, 37.820911], [-122.349755, 37.81924], [-122.349607, 37.818841], [-122.349387, 37.818248], [-122.349194, 37.817728], [-122.349067, 37.817386], [-122.34905, 37.81734], [-122.349024, 37.81727], [-122.349001, 37.817208], [-122.348546, 37.815967], [-122.347181, 37.812247], [-122.346881, 37.811427], [-122.346681, 37.811027], [-122.345401, 37.808947], [-122.341561, 37.802707], [-122.341021, 37.80183], [-122.340281, 37.800628], [-122.336642, 37.795121], [-122.336581, 37.795028], [-122.336467, 37.794846], [-122.336091, 37.794243], [-122.33608, 37.794225], [-122.33517, 37.792768], [-122.332443, 37.788398], [-122.33160384954205, 37.787050918338736]]}}, {"type": "Feature", "properties": {}, "geometry": {"type": "LineString", "coordinates": [[-122.3280460487711, 37.78140690731566], [-122.327917, 37.781202], [-122.32496, 37.77656], [-122.321555, 37.771215], [-122.321342, 37.770881], [-122.316092, 37.762638], [-122.313136, 37.757999], [-122.31048, 37.753829], [-122.30728, 37.748668], [-122.30118, 37.738829], [-122.30028, 37.737429], [-122.297668, 37.733196], [-122.29448, 37.72803], [-122.2943, 37.72775], [-122.29376, 37.72691], [-122.29358, 37.72663], [-122.29324, 37.72613], [-122.29222, 37.72463], [-122.29188, 37.72413], [-122.29146, 37.72347], [-122.2902, 37.72149], [-122.28978, 37.72083], [-122.28886, 37.71939], [-122.286099, 37.71507], [-122.28518, 37.71363], [-122.2845, 37.71255], [-122.28246, 37.709309], [-122.28178, 37.70823]]}}, {"type": "Feature", "properties": {}, "geometry": {"type": "LineString", "coordinates": [[-122.081473, 37.477838], [-122.087103, 37.481805], [-122.103995, 37.493706], [-122.109574, 37.497637], [-122.109615, 37.497685], [-122.109929, 37.498057], [-122.110243, 37.498429], [-122.111131, 37.499481], [-122.111515, 37.499937], [-122.115679, 37.504872], [-122.116233, 37.505529], [-122.116714, 37.5061], [-122.117195, 37.50667], [-122.11724, 37.506721], [-122.117285, 37.506772], [-122.11732, 37.506811], [-122.117353, 37.506849], [-122.117393, 37.506894], [-122.117472, 37.50699], [-122.118285, 37.507985], [-122.120963, 37.511258], [-122.121856, 37.51235], [-122.123099, 37.513867], [-122.12683, 37.518419], [-122.128074, 37.519937], [-122.130414, 37.522816], [-122.137434, 37.531456], [-122.139775, 37.534336], [-122.141655, 37.536635], [-122.147295, 37.543535], [-122.149175, 37.545835], [-122.149429, 37.546159], [-122.150194, 37.547134], [-122.150449, 37.547459], [-122.151574, 37.548894], [-122.154949, 37.553199], [-122.156075, 37.554635], [-122.158315, 37.557455], [-122.165035, 37.565915], [-122.167276, 37.568735], [-122.169821, 37.571884], [-122.174468, 37.577634], [-122.177457, 37.581331], [-122.180003, 37.58448], [-122.181337, 37.58613], [-122.185341, 37.591083], [-122.186676, 37.592734], [-122.18671, 37.592775], [-122.186812, 37.592899], [-122.186846, 37.592941], [-122.188361, 37.594784], [-122.192908, 37.600315], [-122.194424, 37.602159], [-122.194834, 37.602658], [-122.195422, 37.603373], [-122.196067, 37.604158], [-122.19642, 37.604587], [-122.196528, 37.604718], [-122.196709, 37.604939], [-122.196819, 37.605072], [-122.197653, 37.606088], [-122.197932, 37.606427], [-122.200076, 37.609035], [-122.206509, 37.616862], [-122.208654, 37.619471], [-122.21075, 37.622022], [-122.21666, 37.629211], [-122.217041, 37.629675], [-122.218717, 37.631714], [-122.219045, 37.632113], [-122.219138, 37.632226], [-122.219416, 37.632564], [-122.220252, 37.633581], [-122.220531, 37.63392], [-122.222441, 37.636244], [-122.228172, 37.643217], [-122.230083, 37.645542], [-122.233402, 37.649579], [-122.243359, 37.661693], [-122.246679, 37.665731], [-122.247739, 37.667071], [-122.250919, 37.671091], [-122.251226, 37.67148], [-122.251979, 37.672431], [-122.254712, 37.675722], [-122.262912, 37.685596], [-122.264695, 37.687744], [-122.265646, 37.688888], [-122.268864, 37.692763], [-122.27852, 37.704389], [-122.28088, 37.70723], [-122.28178, 37.70823]]}}, {"type": "Feature", "properties": {}, "geometry": {"type": "LineString", "coordinates": [[-122.1151619121892, 37.46627939511875], [-122.113282, 37.467529], [-122.113265, 37.46753], [-122.113173, 37.467452], [-122.112897, 37.467219], [-122.112806, 37.467142], [-122.111974, 37.466438], [-122.111868, 37.466376], [-122.111548, 37.466292], [-122.111237, 37.466288], [-122.108915, 37.466264], [-122.096574, 37.466138], [-122.096426, 37.466102], [-122.096429, 37.466066], [-122.096774, 37.462138], [-122.096762, 37.461905], [-122.093704, 37.465091], [-122.08453, 37.474651], [-122.081473, 37.477838]]}}, {"type": "Feature", "properties": {}, "geometry": {"type": "LineString", "coordinates": [[-122.081473, 37.477838], [-122.079049, 37.476309], [-122.07178, 37.471723], [-122.069357, 37.470195], [-122.069259, 37.470133], [-122.068965, 37.469948], [-122.068868, 37.469887], [-122.068747, 37.46981], [-122.068384, 37.469582], [-122.068264, 37.469506], [-122.067075, 37.468756], [-122.063508, 37.466506], [-122.06232, 37.465756], [-122.06179, 37.465422], [-122.060202, 37.46442], [-122.059673, 37.464087], [-122.057486, 37.462707], [-122.052648, 37.459656], [-122.051931, 37.459251], [-122.051244, 37.459007], [-122.050763, 37.458951], [-122.050313, 37.4589], [-122.04897, 37.4589], [-122.048185, 37.458973], [-122.047825, 37.459007], [-122.046574, 37.459526], [-122.045857, 37.459938], [-122.045271, 37.460276], [-122.044587, 37.460666], [-122.044474, 37.46073], [-122.044399, 37.460773], [-122.043394, 37.461345], [-122.043295, 37.461399], [-122.042541, 37.461811], [-122.041767, 37.462292], [-122.04084752495065, 37.46287946628504]]}}]}