{"type": "FeatureCollection", "features": [{"type": "Feature", "properties": {"name": "District of Columbia"}, "geometry": {"type": "Polygon", "coordinates": [[[-77.112532, 38.940058], [-77.112478, 38.940101], [-77.1045, 38.94641], [-77.101278, 38.94853], [-77.1007, 38.94891], [-77.100527, 38.949053], [-77.09809, 38.951066], [-77.093866, 38.954555], [-77.0915, 38.95651], [-77.091399, 38.956587], [-77.091355, 38.956621], [-77.087664, 38.959459], [-77.085812, 38.960883], [-77.08578, 38.960907], [-77.083839, 38.9624], [-77.082706, 38.963271], [-77.08224, 38.963629], [-77.080418, 38.96503], [-77.077442, 38.967318], [-77.077437, 38.967322], [-77.071641, 38.971778], [-77.068951, 38.973846], [-77.066691, 38.975583], [-77.062565, 38.978755], [-77.054299, 38.98511], [-77.052937, 38.986134], [-77.05222, 38.986673], [-77.051663, 38.987092], [-77.046541, 38.990943], [-77.042389, 38.994065], [-77.040999, 38.99511], [-77.036769, 38.99205], [-77.036461, 38.991827], [-77.036299, 38.99171], [-77.033707, 38.989732], [-77.031235, 38.987845], [-77.026696, 38.984381], [-77.026635, 38.984334], [-77.026591, 38.9843], [-77.020537, 38.979679], [-77.018706, 38.978283], [-77.018655, 38.978243], [-77.017323, 38.977227], [-77.015598, 38.97591], [-77.013798, 38.97441], [-77.011057, 38.972267], [-77.008589, 38.970338], [-77.008298, 38.97011], [-77.007775, 38.969686], [-77.003693, 38.966378], [-77.002602, 38.965494], [-77.002589, 38.965484], [-77.002498, 38.96541], [-77.00165, 38.964754], [-76.999124, 38.962802], [-76.997493, 38.961541], [-76.997364, 38.961442], [-76.991893, 38.957212], [-76.989517, 38.955376], [-76.987925, 38.954146], [-76.985937, 38.952609], [-76.978434, 38.94681], [-76.977826, 38.94634], [-76.9745, 38.943768], [-76.973746, 38.943186], [-76.968159, 38.938867], [-76.966831, 38.937841], [-76.963436, 38.935217], [-76.96343, 38.935212], [-76.961374, 38.933623], [-76.958799, 38.931632], [-76.957719, 38.930797], [-76.957617, 38.930719], [-76.956051, 38.929508], [-76.943864, 38.920088], [-76.941921, 38.918586], [-76.94192, 38.918586], [-76.941445, 38.918218], [-76.935096, 38.913311], [-76.931724, 38.910622], [-76.931637, 38.910552], [-76.931251, 38.910245], [-76.923529, 38.904085], [-76.923451, 38.904023], [-76.919902, 38.901192], [-76.913413, 38.896017], [-76.912869, 38.895583], [-76.910956, 38.894057], [-76.910529, 38.893716], [-76.909395, 38.892812], [-76.910795, 38.891712], [-76.912764, 38.890183], [-76.913263, 38.889796], [-76.913303, 38.889764], [-76.918536, 38.885702], [-76.918551, 38.88569], [-76.919295, 38.885112], [-76.920195, 38.884412], [-76.920825, 38.883919], [-76.92098, 38.883797], [-76.923972, 38.881454], [-76.924035, 38.881405], [-76.929887, 38.876823], [-76.931247, 38.875758], [-76.933719, 38.873822], [-76.933805, 38.873755], [-76.934971, 38.872842], [-76.935944, 38.87208], [-76.93949, 38.869303], [-76.943641, 38.866053], [-76.946702, 38.863656], [-76.946746, 38.863622], [-76.949696, 38.861312], [-76.949861, 38.861197], [-76.953696, 38.858512], [-76.95814, 38.854947], [-76.958149, 38.854939], [-76.961941, 38.851897], [-76.963472, 38.850669], [-76.965438, 38.849091], [-76.966571, 38.848183], [-76.970809, 38.844782], [-76.970852, 38.844748], [-76.972327, 38.843565], [-76.972938, 38.843074], [-76.979497, 38.837812], [-76.982491, 38.835635], [-76.984969, 38.833833], [-76.987331, 38.832115], [-76.989041, 38.830872], [-76.991344, 38.829197], [-76.992697, 38.828213], [-76.992803, 38.828122], [-76.995947, 38.825408], [-76.997943, 38.823686], [-76.998458, 38.823241], [-76.999131, 38.82266], [-76.999997, 38.821913], [-77.001085, 38.821602], [-77.001397, 38.821513], [-77.001481, 38.821446], [-77.001492, 38.821438], [-77.001742, 38.821239], [-77.004679, 38.818907], [-77.015562, 38.810264], [-77.020499, 38.806342], [-77.021868, 38.805256], [-77.03758, 38.792778], [-77.039006, 38.791645], [-77.038993, 38.792767], [-77.038943, 38.796988], [-77.038929, 38.798167], [-77.038904, 38.800297], [-77.038898, 38.800813], [-77.038801, 38.801658], [-77.038403, 38.805109], [-77.038, 38.808603], [-77.037447, 38.813398], [-77.037356, 38.814187], [-77.038098, 38.815613], [-77.038788, 38.819617], [-77.039098, 38.821413], [-77.038884, 38.822954], [-77.038098, 38.828612], [-77.03856, 38.830123], [-77.039199, 38.832212], [-77.041199, 38.833712], [-77.042599, 38.833812], [-77.043499, 38.833212], [-77.044899, 38.834712], [-77.044999, 38.838512], [-77.044488, 38.839599], [-77.044199, 38.840212], [-77.041699, 38.840212], [-77.038549, 38.839262], [-77.034541, 38.840473], [-77.033373, 38.844599], [-77.031698, 38.850512], [-77.031832, 38.850897], [-77.034004, 38.857142], [-77.039299, 38.864312], [-77.038899, 38.865812], [-77.039099, 38.868112], [-77.040599, 38.871212], [-77.041093, 38.871724], [-77.043299, 38.874012], [-77.043454, 38.874101], [-77.043781, 38.874287], [-77.045399, 38.875212], [-77.046599, 38.874912], [-77.045599, 38.873012], [-77.046299, 38.871312], [-77.049099, 38.870712], [-77.051299, 38.873212], [-77.051099, 38.875212], [-77.054099, 38.879112], [-77.055199, 38.880012], [-77.058254, 38.880069], [-77.063499, 38.888611], [-77.064658, 38.891844], [-77.067299, 38.899211], [-77.068199, 38.899811], [-77.069371, 38.900366], [-77.070099, 38.900711], [-77.070622, 38.900763], [-77.070668, 38.900767], [-77.073499, 38.901048], [-77.078356, 38.90153], [-77.079297, 38.901623], [-77.0822, 38.901911], [-77.082839, 38.902095], [-77.0902, 38.904211], [-77.0937, 38.905911], [-77.101016, 38.910983], [-77.1012, 38.911111], [-77.101645, 38.911475], [-77.1034, 38.912911], [-77.105402, 38.917192], [-77.1063, 38.919111], [-77.107361, 38.920022], [-77.1134, 38.925211], [-77.1166, 38.928911], [-77.116816, 38.929493], [-77.1179, 38.932411], [-77.119759, 38.934343], [-77.112532, 38.940058]]]}}, {"type": "Feature", "properties": {"name": "Maryland"}, "geometry": {"type": "MultiPolygon", "coordinates": [[[[-76.263, 38.343898], [-76.259438, 38.341232], [-76.257343, 38.340992], [-76.257343, 38.339396], [-76.258962, 38.339275], [-76.258725, 38.336851], [-76.258012, 38.335173], [-76.257343, 38.334264], [-76.257343, 38.330095], [-76.257469, 38.330638], [-76.257728, 38.331569], [-76.260507, 38.333775], [-76.261933, 38.335919], [-76.262409, 38.337783], [-76.265548, 38.34093], [-76.264358, 38.341991], [-76.263, 38.343898]]], [[[-76.257667, 38.324855], [-76.257507, 38.325748], [-76.257343, 38.326508], [-76.257343, 38.324863], [-76.257667, 38.324855]]], [[[-76.269898, 39.278945], [-76.270221, 39.28223], [-76.269945, 39.283405], [-76.266691, 39.28743], [-76.266411, 39.290539], [-76.260355, 39.292453], [-76.257988, 39.287788], [-76.260112, 39.285823], [-76.261921, 39.284145], [-76.26431, 39.283877], [-76.266221, 39.282009], [-76.264951, 39.279515], [-76.26809, 39.277044], [-76.270119, 39.275046], [-76.272255, 39.274555], [-76.269898, 39.278945]]], [[[-76.324518, 39.3138], [-76.32296, 39.313367], [-76.321427, 39.312851], [-76.321673, 39.312576], [-76.322916, 39.312667], [-76.323651, 39.312685], [-76.324066, 39.312627], [-76.3248, 39.312843], [-76.325118, 39.313172], [-76.325756, 39.313489], [-76.325704, 39.313973], [-76.324518, 39.3138]]], [[[-76.378836, 39.249033], [-76.356853, 39.260953], [-76.353356, 39.261005], [-76.343826, 39.257256], [-76.347967, 39.250108], [-76.349994, 39.248822], [-76.371477, 39.237951], [-76.375425, 39.237855], [-76.381163, 39.239628], [-76.384697, 39.242241], [-76.385474, 39.247556], [-76.378836, 39.249033]]], [[[-76.37982, 38.780201], [-76.375241, 38.782578], [-76.369887, 38.778638], [-76.369728, 38.777279], [-76.372337, 38.774052], [-76.370836, 38.765642], [-76.364212, 38.754314], [-76.362511, 38.748409], [-76.363261, 38.746611], [-76.377362, 38.742797], [-76.381249, 38.743797], [-76.383625, 38.745466], [-76.384337, 38.750165], [-76.39035, 38.757004], [-76.390694, 38.766281], [-76.37982, 38.780201]]], [[[-76.394417, 39.233973], [-76.391415, 39.234818], [-76.390334, 39.234736], [-76.390632, 39.233715], [-76.393434, 39.231862], [-76.39551, 39.232165], [-76.395274, 39.233302], [-76.394417, 39.233973]]], [[[-76.744612, 38.21303], [-76.743084, 38.210861], [-76.742337, 38.209048], [-76.742908, 38.20815], [-76.74503, 38.207239], [-76.747543, 38.212146], [-76.747285, 38.215622], [-76.744612, 38.21303]]], [[[-76.794069, 38.239189], [-76.791217, 38.238909], [-76.78979, 38.238442], [-76.791692, 38.235922], [-76.793118, 38.235175], [-76.796525, 38.236484], [-76.796356, 38.238162], [-76.794069, 38.239189]]], [[[-76.810871, 38.25293], [-76.808805, 38.251882], [-76.808924, 38.250856], [-76.809993, 38.250389], [-76.811895, 38.251415], [-76.812193, 38.252306], [-76.810871, 38.25293]]], [[[-76.260559, 38.370754], [-76.263583, 38.372763], [-76.266136, 38.373401], [-76.270195, 38.374591], [-76.271084, 38.379624], [-76.274293, 38.38214], [-76.278068, 38.382392], [-76.278656, 38.383354], [-76.277885, 38.385028], [-76.278457, 38.386425], [-76.279731, 38.387142], [-76.281875, 38.389232], [-76.281379, 38.391307], [-76.282501, 38.392314], [-76.280494, 38.395599], [-76.280151, 38.398273], [-76.279251, 38.403244], [-76.280036, 38.407741], [-76.281501, 38.411212], [-76.282844, 38.415779], [-76.285007, 38.417007], [-76.286376, 38.419414], [-76.286554, 38.419802], [-76.288017, 38.423], [-76.293206, 38.425622], [-76.296081, 38.429039], [-76.296333, 38.431556], [-76.298126, 38.433982], [-76.300361, 38.436103], [-76.300239, 38.43774], [-76.302429, 38.44141], [-76.303611, 38.443107], [-76.303884, 38.445086], [-76.305904, 38.448158], [-76.308928, 38.449848], [-76.309425, 38.450126], [-76.311752, 38.450378], [-76.311958, 38.452667], [-76.313293, 38.455226], [-76.313153, 38.456813], [-76.317907, 38.459046], [-76.321647, 38.461914], [-76.325752, 38.467372], [-76.325988, 38.469189], [-76.32978, 38.472972], [-76.331559, 38.473548], [-76.332124, 38.47597], [-76.331039, 38.477943], [-76.331428, 38.479347], [-76.332412, 38.480232], [-76.333549, 38.482086], [-76.332643, 38.484447], [-76.333119, 38.487051], [-76.329672, 38.486121], [-76.329572, 38.486143], [-76.326701, 38.486772], [-76.324971, 38.487495], [-76.324919, 38.487517], [-76.325386, 38.487781], [-76.327058, 38.488726], [-76.326701, 38.489842], [-76.325037, 38.490679], [-76.323968, 38.491144], [-76.32376, 38.49204], [-76.323493, 38.493191], [-76.326701, 38.495051], [-76.327652, 38.496911], [-76.328338, 38.49802], [-76.326939, 38.498399], [-76.323867, 38.498748], [-76.32232, 38.498916], [-76.321929, 38.49776], [-76.319831, 38.497409], [-76.317459, 38.49773], [-76.315879, 38.496795], [-76.310813, 38.496368], [-76.307121, 38.497875], [-76.30355, 38.499507], [-76.299659, 38.501304], [-76.293846, 38.501667], [-76.291682, 38.502813], [-76.287551, 38.503536], [-76.285987, 38.503158], [-76.286177, 38.502305], [-76.288554, 38.501282], [-76.288197, 38.498678], [-76.285226, 38.497841], [-76.281661, 38.496074], [-76.273699, 38.494865], [-76.268232, 38.49719], [-76.267519, 38.49812], [-76.26538, 38.497469], [-76.264215, 38.500156], [-76.263122, 38.502677], [-76.260726, 38.506477], [-76.258644, 38.509803], [-76.257343, 38.511618], [-76.257343, 38.367654], [-76.260559, 38.370754]]], [[[-76.2674, 38.542564], [-76.272273, 38.538474], [-76.27453, 38.535128], [-76.273817, 38.533919], [-76.274057, 38.531207], [-76.277969, 38.533473], [-76.279273, 38.535575], [-76.277461, 38.541851], [-76.275337, 38.547145], [-76.275913, 38.548809], [-76.275558, 38.552474], [-76.276985, 38.554603], [-76.278228, 38.555957], [-76.278869, 38.55767], [-76.281303, 38.561119], [-76.284217, 38.560997], [-76.283744, 38.56216], [-76.290043, 38.569158], [-76.296302, 38.570083], [-76.299232, 38.569507], [-76.299774, 38.571952], [-76.301689, 38.572948], [-76.305007, 38.572494], [-76.303291, 38.57468], [-76.299705, 38.575042], [-76.294601, 38.579929], [-76.292572, 38.58142], [-76.291847, 38.583663], [-76.290145, 38.58258], [-76.288475, 38.58279], [-76.289861, 38.577319], [-76.283562, 38.575647], [-76.280948, 38.574718], [-76.277383, 38.577784], [-76.2756, 38.580942], [-76.269896, 38.582986], [-76.266212, 38.586052], [-76.265855, 38.588095], [-76.266925, 38.58986], [-76.271797, 38.590789], [-76.272125, 38.592075], [-76.268633, 38.597753], [-76.266687, 38.596641], [-76.26538, 38.597105], [-76.263122, 38.598777], [-76.263835, 38.60147], [-76.26229, 38.602306], [-76.264073, 38.603978], [-76.269777, 38.603885], [-76.271476, 38.601882], [-76.273229, 38.602039], [-76.274887, 38.603584], [-76.275535, 38.604682], [-76.275131, 38.607307], [-76.278861, 38.611518], [-76.280343, 38.615577], [-76.280829, 38.619486], [-76.282493, 38.62255], [-76.286102, 38.625656], [-76.284561, 38.626407], [-76.279838, 38.623977], [-76.27893, 38.622714], [-76.276432, 38.621157], [-76.276096, 38.619005], [-76.273223, 38.617814], [-76.271827, 38.615661], [-76.274293, 38.611779], [-76.269896, 38.610014], [-76.267519, 38.611221], [-76.265142, 38.611221], [-76.264155, 38.615109], [-76.260878, 38.617542], [-76.259438, 38.614843], [-76.257343, 38.614515], [-76.257343, 38.541724], [-76.2674, 38.542564]]], [[[-76.26409, 38.729811], [-76.267277, 38.72823], [-76.268181, 38.726054], [-76.270277, 38.724385], [-76.271596, 38.713216], [-76.271294, 38.710635], [-76.271867, 38.710237], [-76.27266, 38.71035], [-76.277139, 38.713743], [-76.282354, 38.716204], [-76.282017, 38.718118], [-76.284157, 38.720714], [-76.285701, 38.720899], [-76.286533, 38.719972], [-76.288791, 38.719787], [-76.288672, 38.722012], [-76.292238, 38.722754], [-76.293664, 38.720807], [-76.293768, 38.717346], [-76.29547, 38.718528], [-76.299171, 38.719287], [-76.295957, 38.724162], [-76.296497, 38.7258], [-76.299389, 38.726895], [-76.299009, 38.727819], [-76.295495, 38.730025], [-76.294733, 38.731005], [-76.294377, 38.733415], [-76.294496, 38.735733], [-76.296635, 38.736938], [-76.296635, 38.738977], [-76.295684, 38.741017], [-76.297229, 38.744446], [-76.296635, 38.745929], [-76.297823, 38.748061], [-76.298655, 38.749729], [-76.303171, 38.750193], [-76.310594, 38.749385], [-76.313391, 38.74908], [-76.313866, 38.747412], [-76.312797, 38.745836], [-76.317669, 38.743797], [-76.319927, 38.743056], [-76.320403, 38.742036], [-76.322661, 38.741573], [-76.324919, 38.74009], [-76.323611, 38.738328], [-76.321116, 38.737772], [-76.318026, 38.738607], [-76.314698, 38.737587], [-76.313035, 38.733415], [-76.312756, 38.730708], [-76.316146, 38.729586], [-76.319333, 38.729151], [-76.320046, 38.72637], [-76.322939, 38.722429], [-76.324496, 38.718461], [-76.326437, 38.717417], [-76.327132, 38.717044], [-76.328945, 38.714974], [-76.329249, 38.714769], [-76.331479, 38.713266], [-76.332177, 38.710477], [-76.330489, 38.709656], [-76.329635, 38.709241], [-76.329797, 38.708158], [-76.330269, 38.708138], [-76.332715, 38.708034], [-76.332868, 38.708027], [-76.333441, 38.705867], [-76.334017, 38.703127], [-76.327401, 38.693912], [-76.326703, 38.691458], [-76.323859, 38.691746], [-76.321865, 38.689512], [-76.321949, 38.689245], [-76.32367, 38.683777], [-76.323156, 38.679674], [-76.324053, 38.679139], [-76.325939, 38.678015], [-76.333356, 38.6787], [-76.338229, 38.677586], [-76.338809, 38.677105], [-76.34013, 38.676009], [-76.340101, 38.675919], [-76.339417, 38.673783], [-76.3388, 38.673158], [-76.337966, 38.672313], [-76.339709, 38.670642], [-76.344231, 38.678783], [-76.34372, 38.68169], [-76.344144, 38.684085], [-76.345306, 38.688009], [-76.346418, 38.688958], [-76.345647, 38.690537], [-76.346475, 38.692048], [-76.343798, 38.695478], [-76.342973, 38.698463], [-76.343456, 38.701549], [-76.345034, 38.70384], [-76.344613, 38.706344], [-76.342529, 38.714055], [-76.341291, 38.714416], [-76.340884, 38.71675], [-76.339995, 38.72056], [-76.338503, 38.722294], [-76.33879, 38.726259], [-76.338896, 38.727722], [-76.340543, 38.730338], [-76.340717, 38.736653], [-76.339116, 38.738245], [-76.340229, 38.743857], [-76.34253, 38.749016], [-76.342446, 38.750896], [-76.341302, 38.751901], [-76.339579, 38.755666], [-76.337661, 38.75778], [-76.337261, 38.76073], [-76.330029, 38.763445], [-76.328721, 38.76641], [-76.329435, 38.768819], [-76.332762, 38.771228], [-76.334619, 38.772911], [-76.330202, 38.776908], [-76.329328, 38.775479], [-76.327266, 38.77419], [-76.32435, 38.775096], [-76.323607, 38.776854], [-76.322963, 38.778351], [-76.323768, 38.779287], [-76.318841, 38.787758], [-76.31327, 38.792756], [-76.310081, 38.796846], [-76.308922, 38.813346], [-76.303261, 38.8209], [-76.302235, 38.82516], [-76.300889, 38.82619], [-76.2978, 38.828314], [-76.294476, 38.827266], [-76.292352, 38.82775], [-76.288455, 38.827347], [-76.284632, 38.829391], [-76.281423, 38.831705], [-76.277411, 38.831419], [-76.278151, 38.835494], [-76.279759, 38.836241], [-76.281548, 38.837956], [-76.279861, 38.839429], [-76.279429, 38.841154], [-76.277625, 38.843082], [-76.274786, 38.84448], [-76.269118, 38.849795], [-76.266515, 38.852848], [-76.262654, 38.855784], [-76.257343, 38.859679], [-76.257343, 38.855968], [-76.257996, 38.855551], [-76.262606, 38.851989], [-76.264221, 38.851572], [-76.265808, 38.847512], [-76.265071, 38.845354], [-76.261779, 38.844099], [-76.259478, 38.84312], [-76.257343, 38.840145], [-76.257343, 38.734809], [-76.26409, 38.729811]]], [[[-76.258844, 38.934852], [-76.260864, 38.932726], [-76.2592, 38.929952], [-76.257343, 38.92823], [-76.257343, 38.919015], [-76.262226, 38.919976], [-76.262353, 38.922192], [-76.264683, 38.924576], [-76.265731, 38.928026], [-76.264943, 38.930297], [-76.268344, 38.933449], [-76.269539, 38.938087], [-76.271682, 38.939926], [-76.270728, 38.942062], [-76.273083, 38.941927], [-76.276726, 38.93981], [-76.281022, 38.936468], [-76.288152, 38.933172], [-76.288696, 38.930593], [-76.291869, 38.930012], [-76.291971, 38.929978], [-76.295911, 38.928663], [-76.295933, 38.924612], [-76.299308, 38.920898], [-76.299431, 38.918542], [-76.293867, 38.910121], [-76.296098, 38.908184], [-76.294453, 38.90686], [-76.293504, 38.905648], [-76.293308, 38.903241], [-76.299606, 38.902675], [-76.299487, 38.906837], [-76.3002, 38.909704], [-76.301982, 38.914697], [-76.302814, 38.922001], [-76.305072, 38.924313], [-76.308994, 38.924683], [-76.313276, 38.923746], [-76.3166, 38.923018], [-76.316956, 38.920337], [-76.317551, 38.917748], [-76.315768, 38.915252], [-76.317313, 38.91442], [-76.318024, 38.911288], [-76.324097, 38.911174], [-76.324087, 38.913587], [-76.324681, 38.915437], [-76.327177, 38.918118], [-76.329791, 38.918488], [-76.33395, 38.918118], [-76.337753, 38.914974], [-76.340249, 38.91183], [-76.338229, 38.907484], [-76.334585, 38.906634], [-76.336104, 38.905977], [-76.337246, 38.900064], [-76.336177, 38.896692], [-76.338218, 38.892987], [-76.338501, 38.892474], [-76.335364, 38.886021], [-76.333641, 38.88055], [-76.333935, 38.877024], [-76.333326, 38.874359], [-76.33103, 38.86432], [-76.334019, 38.860238], [-76.340587, 38.85574], [-76.346205, 38.856426], [-76.35039, 38.857399], [-76.356492, 38.853895], [-76.361141, 38.851992], [-76.363478, 38.849976], [-76.363901, 38.847266], [-76.365665, 38.844246], [-76.365282, 38.841785], [-76.366496, 38.838792], [-76.366504, 38.838772], [-76.368195, 38.836125], [-76.372692, 38.837537], [-76.375086, 38.839474], [-76.375408, 38.842644], [-76.374614, 38.845148], [-76.374858, 38.847589], [-76.375988, 38.848354], [-76.376202, 38.850461], [-76.374677, 38.855319], [-76.372646, 38.857759], [-76.371513, 38.859105], [-76.369157, 38.862953], [-76.368157, 38.866777], [-76.364678, 38.873831], [-76.363869, 38.8841], [-76.364033, 38.885109], [-76.365219, 38.892409], [-76.365387, 38.898178], [-76.365658, 38.907477], [-76.362306, 38.929288], [-76.361959, 38.936131], [-76.361727, 38.939175], [-76.355184, 38.954134], [-76.353828, 38.957234], [-76.347004, 38.967146], [-76.340919, 38.974503], [-76.340851, 38.974585], [-76.335987, 38.97548], [-76.334529, 38.977642], [-76.334652, 38.978201], [-76.335069, 38.980088], [-76.334666, 38.982076], [-76.334603, 38.982385], [-76.332988, 38.9868], [-76.324528, 38.995695], [-76.322679, 38.999602], [-76.321353, 39.00341], [-76.321591, 39.00655], [-76.323557, 39.008961], [-76.320274, 39.023013], [-76.311766, 39.035257], [-76.305306, 39.038867], [-76.302571, 39.03944], [-76.301606, 39.038179], [-76.301853, 39.035211], [-76.302846, 39.032109], [-76.305318, 39.03192], [-76.305954, 39.028769], [-76.305281, 39.026335], [-76.303582, 39.025872], [-76.301574, 39.022445], [-76.297927, 39.01919], [-76.297347, 39.013569], [-76.296277, 39.010793], [-76.294873, 39.007148], [-76.293962, 39.003948], [-76.292912, 39.002644], [-76.28923, 38.998071], [-76.289169, 38.997725], [-76.289136, 38.997532], [-76.289028, 38.996918], [-76.288988, 38.996689], [-76.285385, 38.993294], [-76.28107, 38.988799], [-76.281323, 38.987497], [-76.279657, 38.985328], [-76.277976, 38.98314], [-76.277478, 38.982492], [-76.270955, 38.983415], [-76.27026, 38.983437], [-76.259913, 38.983762], [-76.259996, 38.983174], [-76.260151, 38.982073], [-76.262528, 38.980411], [-76.261815, 38.978009], [-76.257343, 38.975797], [-76.257343, 38.936112], [-76.258844, 38.934852]]], [[[-76.25869, 39.138315], [-76.262292, 39.140468], [-76.265384, 39.143994], [-76.269132, 39.144488], [-76.276075, 39.146225], [-76.277367, 39.151647], [-76.274637, 39.16549], [-76.267681, 39.178505], [-76.266602, 39.180523], [-76.257343, 39.190041], [-76.257343, 39.136214], [-76.25869, 39.138315]]], [[[-76.259035, 39.410057], [-76.263478, 39.408129], [-76.263881, 39.407765], [-76.269064, 39.403079], [-76.269056, 39.402874], [-76.268945, 39.399865], [-76.2674, 39.3961], [-76.265142, 39.392334], [-76.26847, 39.39114], [-76.26851, 39.390863], [-76.268732, 39.389318], [-76.268826, 39.38866], [-76.270897, 39.386099], [-76.272391, 39.384252], [-76.274293, 39.383333], [-76.2756, 39.380853], [-76.275569, 39.380828], [-76.272204, 39.378096], [-76.272154, 39.376444], [-76.275481, 39.37479], [-76.277739, 39.371483], [-76.279641, 39.37231], [-76.281186, 39.371942], [-76.282493, 39.370197], [-76.285226, 39.37084], [-76.28689, 39.369002], [-76.285701, 39.367716], [-76.284632, 39.366154], [-76.283562, 39.365052], [-76.281542, 39.365787], [-76.279997, 39.366062], [-76.2756, 39.364409], [-76.273461, 39.361468], [-76.265499, 39.359171], [-76.266925, 39.356139], [-76.266365, 39.353352], [-76.265277, 39.350008], [-76.261632, 39.347789], [-76.258487, 39.34695], [-76.258844, 39.341251], [-76.257343, 39.339663], [-76.257343, 39.337698], [-76.263577, 39.334308], [-76.266351, 39.331912], [-76.266835, 39.329677], [-76.272383, 39.326277], [-76.276078, 39.322908], [-76.277739, 39.322132], [-76.278218, 39.319448], [-76.277718, 39.315549], [-76.278503, 39.313934], [-76.281255, 39.310365], [-76.280592, 39.306097], [-76.281578, 39.302108], [-76.281747, 39.29966], [-76.287254, 39.299892], [-76.292195, 39.301162], [-76.296616, 39.302032], [-76.296514, 39.302601], [-76.291889, 39.306813], [-76.29039, 39.309784], [-76.290559, 39.311932], [-76.290148, 39.314354], [-76.289623, 39.317167], [-76.291078, 39.318108], [-76.2926, 39.321275], [-76.293009, 39.322928], [-76.293518, 39.325048], [-76.295759, 39.327734], [-76.298778, 39.329208], [-76.299251, 39.336434], [-76.298778, 39.340208], [-76.294978, 39.346608], [-76.294383, 39.348944], [-76.296908, 39.351307], [-76.299977, 39.3523], [-76.302069, 39.351993], [-76.309422, 39.354152], [-76.311679, 39.355808], [-76.320641, 39.3563], [-76.322495, 39.35735], [-76.320883, 39.358166], [-76.313391, 39.357793], [-76.309351, 39.359631], [-76.305904, 39.364409], [-76.303052, 39.370656], [-76.302458, 39.373963], [-76.302458, 39.37727], [-76.304003, 39.381496], [-76.307093, 39.385446], [-76.30867, 39.386563], [-76.311371, 39.388477], [-76.315293, 39.389303], [-76.316837, 39.388844], [-76.318739, 39.388844], [-76.323017, 39.389946], [-76.325394, 39.38912], [-76.329197, 39.38765], [-76.333866, 39.388891], [-76.333886, 39.388896], [-76.335377, 39.390405], [-76.338942, 39.390497], [-76.339229, 39.390624], [-76.342269, 39.391967], [-76.344408, 39.391691], [-76.344438, 39.391738], [-76.345953, 39.394079], [-76.348245, 39.394374], [-76.348805, 39.394446], [-76.350945, 39.39261], [-76.35344, 39.395181], [-76.354866, 39.395273], [-76.357124, 39.394079], [-76.357718, 39.390589], [-76.357558, 39.389693], [-76.357243, 39.387926], [-76.357246, 39.387871], [-76.357362, 39.385629], [-76.359263, 39.381404], [-76.356173, 39.380302], [-76.353797, 39.38039], [-76.353678, 39.380394], [-76.352371, 39.377546], [-76.352302, 39.377473], [-76.350113, 39.375158], [-76.347982, 39.374997], [-76.343933, 39.375617], [-76.343726, 39.375474], [-76.341794, 39.374147], [-76.339179, 39.374331], [-76.337753, 39.37332], [-76.339417, 39.371575], [-76.340011, 39.368635], [-76.338823, 39.366062], [-76.339417, 39.362204], [-76.340962, 39.359906], [-76.345503, 39.358303], [-76.337316, 39.346348], [-76.335563, 39.342279], [-76.334243, 39.339708], [-76.331608, 39.337106], [-76.330614, 39.335424], [-76.333924, 39.333935], [-76.336921, 39.33877], [-76.339655, 39.339781], [-76.345003, 39.340332], [-76.347142, 39.340149], [-76.3494, 39.339229], [-76.349346, 39.336907], [-76.349281, 39.334082], [-76.350826, 39.332887], [-76.350945, 39.331141], [-76.352608, 39.329394], [-76.351776, 39.326453], [-76.349162, 39.326361], [-76.345359, 39.328015], [-76.34215, 39.325901], [-76.338917, 39.325751], [-76.333387, 39.324075], [-76.334257, 39.322327], [-76.333951, 39.320145], [-76.331625, 39.317303], [-76.329184, 39.315036], [-76.332643, 39.315144], [-76.33609, 39.314409], [-76.338704, 39.312754], [-76.340011, 39.311283], [-76.339655, 39.308892], [-76.338347, 39.306501], [-76.336582, 39.305111], [-76.338257, 39.304417], [-76.340044, 39.304533], [-76.344052, 39.310823], [-76.346191, 39.313581], [-76.347288, 39.314099], [-76.347142, 39.316616], [-76.348211, 39.317627], [-76.350113, 39.316983], [-76.351063, 39.31588], [-76.350945, 39.313398], [-76.35142, 39.312018], [-76.353523, 39.310407], [-76.355495, 39.312155], [-76.354985, 39.313214], [-76.355698, 39.31588], [-76.359501, 39.317627], [-76.360808, 39.31965], [-76.36243, 39.320376], [-76.365324, 39.321672], [-76.368176, 39.321764], [-76.37091, 39.320661], [-76.37033, 39.319881], [-76.368652, 39.317627], [-76.366275, 39.315788], [-76.36439, 39.31184], [-76.367408, 39.307954], [-76.371079, 39.304157], [-76.374947, 39.301255], [-76.377939, 39.299778], [-76.380179, 39.298593], [-76.383269, 39.298317], [-76.384576, 39.299972], [-76.384933, 39.301903], [-76.383388, 39.303467], [-76.381486, 39.305858], [-76.383863, 39.308432], [-76.388498, 39.308248], [-76.389365, 39.308195], [-76.391469, 39.308065], [-76.39337, 39.30595], [-76.393252, 39.30411], [-76.394559, 39.303559], [-76.395747, 39.304018], [-76.395747, 39.306042], [-76.398837, 39.30926], [-76.401333, 39.308065], [-76.402882, 39.308335], [-76.402878, 39.311375], [-76.40483, 39.311496], [-76.40882, 39.311743], [-76.41073, 39.308622], [-76.410959, 39.308248], [-76.410894, 39.307511], [-76.410602, 39.304202], [-76.408701, 39.301536], [-76.408106, 39.300064], [-76.405611, 39.300064], [-76.402402, 39.299512], [-76.398956, 39.297029], [-76.398718, 39.29473], [-76.399194, 39.292339], [-76.397322, 39.29084], [-76.395747, 39.28958], [-76.395379, 39.288268], [-76.395153, 39.287464], [-76.393252, 39.286268], [-76.390875, 39.286544], [-76.386953, 39.287004], [-76.382556, 39.286452], [-76.381621, 39.284278], [-76.382322, 39.283143], [-76.383509, 39.281288], [-76.382629, 39.279459], [-76.38282, 39.277549], [-76.384901, 39.275928], [-76.386596, 39.276426], [-76.387428, 39.277254], [-76.388854, 39.27799], [-76.393252, 39.277714], [-76.393846, 39.276426], [-76.395391, 39.275598], [-76.397886, 39.27247], [-76.399194, 39.270262], [-76.39768, 39.269901], [-76.395136, 39.269293], [-76.395432, 39.266823], [-76.399312, 39.261521], [-76.402355, 39.258315], [-76.402878, 39.256736], [-76.404898, 39.25554], [-76.404066, 39.252411], [-76.400942, 39.24904], [-76.401927, 39.248362], [-76.404541, 39.249282], [-76.406205, 39.247994], [-76.408106, 39.247073], [-76.410602, 39.249006], [-76.413692, 39.249098], [-76.415712, 39.24781], [-76.41904, 39.249374], [-76.422724, 39.252871], [-76.427002, 39.254896], [-76.436628, 39.253423], [-76.438918, 39.255096], [-76.443359, 39.255914], [-76.447095, 39.252822], [-76.446297, 39.251042], [-76.450838, 39.249079], [-76.451128, 39.246683], [-76.450987, 39.246648], [-76.449513, 39.246285], [-76.446559, 39.245556], [-76.444642, 39.247598], [-76.440995, 39.246683], [-76.440702, 39.245311], [-76.444296, 39.24304], [-76.443128, 39.241114], [-76.441295, 39.241386], [-76.440039, 39.241572], [-76.433538, 39.239342], [-76.430092, 39.239066], [-76.424031, 39.2352], [-76.422486, 39.232531], [-76.41904, 39.232439], [-76.417826, 39.23233], [-76.41393, 39.231979], [-76.410246, 39.231518], [-76.4102, 39.231535], [-76.405967, 39.233083], [-76.404422, 39.2352], [-76.401451, 39.237778], [-76.399312, 39.238698], [-76.398124, 39.237041], [-76.400501, 39.234832], [-76.401095, 39.232715], [-76.399788, 39.230782], [-76.399123, 39.229047], [-76.409697, 39.225122], [-76.415418, 39.221774], [-76.417681, 39.219808], [-76.421901, 39.210633], [-76.425281, 39.205708], [-76.428958, 39.204136], [-76.436539, 39.202168], [-76.438763, 39.199266], [-76.440171, 39.197524], [-76.442482, 39.195408], [-76.445319, 39.195964], [-76.447674, 39.197735], [-76.449463, 39.201595], [-76.449582, 39.203805], [-76.449322, 39.204242], [-76.44914, 39.204546], [-76.447442, 39.207396], [-76.445505, 39.209165], [-76.444115, 39.210435], [-76.444815, 39.215318], [-76.444828, 39.215407], [-76.446848, 39.218261], [-76.453384, 39.218169], [-76.4579, 39.21909], [-76.459319, 39.218075], [-76.462535, 39.215775], [-76.461703, 39.209422], [-76.461492, 39.204067], [-76.462007, 39.204158], [-76.463483, 39.205908], [-76.480083, 39.205108], [-76.488883, 39.202208], [-76.492049, 39.201442], [-76.495705, 39.201876], [-76.498384, 39.204808], [-76.500984, 39.209376], [-76.50092, 39.21421], [-76.49688, 39.215039], [-76.497347, 39.216697], [-76.496048, 39.219182], [-76.496286, 39.221668], [-76.499138, 39.223049], [-76.4989, 39.225258], [-76.497355, 39.226915], [-76.500178, 39.229414], [-76.503178, 39.232071], [-76.506862, 39.232163], [-76.512567, 39.22848], [-76.516607, 39.232255], [-76.517201, 39.241551], [-76.518271, 39.242011], [-76.520886, 39.241091], [-76.521019, 39.241212], [-76.522312, 39.24238], [-76.529584, 39.240298], [-76.533245, 39.23925], [-76.538949, 39.245509], [-76.540256, 39.250387], [-76.552735, 39.257472], [-76.563311, 39.25692], [-76.566282, 39.259589], [-76.569016, 39.259221], [-76.571511, 39.260693], [-76.571868, 39.262165], [-76.572224, 39.264741], [-76.575031, 39.264642], [-76.577453, 39.264557], [-76.579474, 39.261521], [-76.583039, 39.261245], [-76.586485, 39.261337], [-76.584888, 39.255371], [-76.584465, 39.253792], [-76.580187, 39.251951], [-76.578523, 39.251215], [-76.578523, 39.248822], [-76.571749, 39.245601], [-76.565569, 39.241183], [-76.56343, 39.23787], [-76.562242, 39.235292], [-76.560103, 39.235476], [-76.558439, 39.233727], [-76.558914, 39.232255], [-76.559992, 39.231166], [-76.562479, 39.230414], [-76.562836, 39.229677], [-76.562004, 39.22756], [-76.5645, 39.224614], [-76.559461, 39.220406], [-76.555349, 39.216972], [-76.550239, 39.217341], [-76.549051, 39.21375], [-76.541801, 39.212277], [-76.534285, 39.213208], [-76.532845, 39.21111], [-76.532399, 39.209993], [-76.533074, 39.207648], [-76.533085, 39.207608], [-76.535385, 39.203808], [-76.533797, 39.202792], [-76.532131, 39.202226], [-76.530875, 39.200979], [-76.527859, 39.19552], [-76.528238, 39.194333], [-76.533817, 39.193195], [-76.533758, 39.192794], [-76.533406, 39.190413], [-76.529956, 39.186979], [-76.528024, 39.184359], [-76.52612, 39.181003], [-76.525785, 39.177908], [-76.523029, 39.176507], [-76.519149, 39.174533], [-76.518866, 39.174281], [-76.517677, 39.173225], [-76.514781, 39.172829], [-76.514644, 39.17281], [-76.512387, 39.172502], [-76.508384, 39.169408], [-76.503675, 39.165966], [-76.500564, 39.162076], [-76.500683, 39.159404], [-76.500942, 39.159092], [-76.501752, 39.158114], [-76.50306, 39.157469], [-76.501745, 39.156223], [-76.50092, 39.155441], [-76.500048, 39.155318], [-76.498306, 39.155073], [-76.493909, 39.155165], [-76.490463, 39.156086], [-76.488561, 39.157376], [-76.487848, 39.159219], [-76.486184, 39.162445], [-76.484023, 39.164407], [-76.48026, 39.166637], [-76.478299, 39.167067], [-76.476916, 39.166304], [-76.476893, 39.164184], [-76.475983, 39.161109], [-76.471667, 39.154971], [-76.471483, 39.154709], [-76.468669, 39.153023], [-76.452782, 39.143509], [-76.440129, 39.13745], [-76.437302, 39.135793], [-76.431043, 39.132123], [-76.432481, 39.126709], [-76.433278, 39.121774], [-76.431981, 39.119555], [-76.432981, 39.113209], [-76.433144, 39.111234], [-76.431932, 39.107159], [-76.429331, 39.101941], [-76.422158, 39.083849], [-76.421936, 39.076991], [-76.423081, 39.07421], [-76.424465, 39.071135], [-76.42994, 39.062853], [-76.43287, 39.059536], [-76.435606, 39.056488], [-76.438928, 39.052788], [-76.435632, 39.050089], [-76.431223, 39.046958], [-76.429714, 39.046421], [-76.429046, 39.046184], [-76.424228, 39.043989], [-76.41373, 39.038872], [-76.405081, 39.033211], [-76.39778, 39.022611], [-76.394498, 39.012684], [-76.395226, 39.011499], [-76.400382, 39.009874], [-76.402765, 39.007738], [-76.403594, 39.007481], [-76.406116, 39.006701], [-76.409699, 39.00356], [-76.413967, 39.001442], [-76.414013, 38.99945], [-76.413248, 38.996967], [-76.415133, 38.995556], [-76.419244, 38.994672], [-76.421911, 38.994601], [-76.422502, 38.993195], [-76.421773, 38.991588], [-76.421004, 38.989186], [-76.422665, 38.986572], [-76.424734, 38.986511], [-76.426867, 38.987048], [-76.42724, 38.989648], [-76.425576, 38.992142], [-76.42415, 38.994174], [-76.423437, 38.997037], [-76.423912, 38.999531], [-76.425814, 39.000455], [-76.428428, 39.000916], [-76.43128, 39.00147], [-76.432137, 38.999472], [-76.432231, 38.999254], [-76.434489, 38.996668], [-76.436034, 38.996114], [-76.437698, 38.996021], [-76.439718, 38.996206], [-76.446611, 38.994913], [-76.449298, 38.993708], [-76.4497, 38.993528], [-76.449723, 38.993446], [-76.450413, 38.991034], [-76.4497, 38.989463], [-76.44875, 38.986969], [-76.448981, 38.982811], [-76.450481, 38.977612], [-76.454581, 38.974512], [-76.455286, 38.979394], [-76.455718, 38.980766], [-76.454454, 38.982351], [-76.456712, 38.983921], [-76.458495, 38.98466], [-76.460871, 38.98309], [-76.463129, 38.981057], [-76.46919, 38.982628], [-76.474602, 38.981772], [-76.476202, 38.981519], [-76.480242, 38.977731], [-76.479752, 38.977105], [-76.478579, 38.975607], [-76.476321, 38.974867], [-76.474198, 38.972647], [-76.474863, 38.967459], [-76.474882, 38.967312], [-76.473243, 38.962397], [-76.472852, 38.961225], [-76.472786, 38.961026], [-76.471281, 38.956512], [-76.463239, 38.948765], [-76.463081, 38.948612], [-76.462086, 38.948574], [-76.457781, 38.948412], [-76.453933, 38.944071], [-76.452278, 38.942731], [-76.45028, 38.941113], [-76.454878, 38.93759], [-76.459659, 38.933927], [-76.462374, 38.930712], [-76.462506, 38.93037], [-76.463212, 38.92853], [-76.463461, 38.927884], [-76.463617, 38.927477], [-76.463544, 38.927044], [-76.463166, 38.924808], [-76.462933, 38.924664], [-76.46188, 38.924013], [-76.458783, 38.915214], [-76.460256, 38.907145], [-76.46938, 38.907613], [-76.46948, 38.911513], [-76.475761, 38.914469], [-76.478222, 38.916454], [-76.477865, 38.917563], [-76.478341, 38.91895], [-76.480836, 38.920245], [-76.483451, 38.923573], [-76.485828, 38.92459], [-76.48723, 38.925646], [-76.489512, 38.927364], [-76.497236, 38.925515], [-76.500445, 38.923943], [-76.50622, 38.921235], [-76.50912, 38.919875], [-76.508883, 38.915807], [-76.507338, 38.91294], [-76.501002, 38.909319], [-76.499732, 38.908594], [-76.494503, 38.909334], [-76.495216, 38.905265], [-76.493184, 38.903786], [-76.49388, 38.899614], [-76.49278, 38.895614], [-76.49088, 38.894514], [-76.48938, 38.887414], [-76.49068, 38.884814], [-76.492105, 38.883688], [-76.49701, 38.879813], [-76.511026, 38.869479], [-76.51493, 38.866536], [-76.519442, 38.863135], [-76.522074, 38.862434], [-76.528252, 38.86294], [-76.530986, 38.86288], [-76.534433, 38.862804], [-76.538474, 38.861416], [-76.537523, 38.858547], [-76.536454, 38.851791], [-76.537642, 38.848552], [-76.531337, 38.850128], [-76.528331, 38.850879], [-76.528016, 38.850958], [-76.525401, 38.851514], [-76.523143, 38.851421], [-76.521955, 38.850496], [-76.519935, 38.850125], [-76.516944, 38.851157], [-76.515663, 38.8518], [-76.514944, 38.852162], [-76.509477, 38.849107], [-76.508506, 38.848574], [-76.507457, 38.847997], [-76.506506, 38.846053], [-76.503297, 38.845498], [-76.501871, 38.848645], [-76.500089, 38.849848], [-76.49977, 38.852212], [-76.498161, 38.852859], [-76.496579, 38.853115], [-76.494444, 38.850724], [-76.493464, 38.848247], [-76.493077, 38.844295], [-76.491045, 38.842943], [-76.489878, 38.838715], [-76.490887, 38.83604], [-76.491389, 38.83471], [-76.491984, 38.834205], [-76.494217, 38.832309], [-76.494312, 38.832171], [-76.49576, 38.830067], [-76.495744, 38.829102], [-76.495723, 38.827776], [-76.496065, 38.825931], [-76.496123, 38.825642], [-76.496862, 38.821989], [-76.496918, 38.821712], [-76.49764, 38.820167], [-76.498878, 38.817516], [-76.498764, 38.817186], [-76.497944, 38.814802], [-76.499448, 38.814271], [-76.500382, 38.813942], [-76.501458, 38.811592], [-76.504407, 38.811159], [-76.505307, 38.810614], [-76.506661, 38.809793], [-76.505806, 38.808046], [-76.506271, 38.805547], [-76.506973, 38.805524], [-76.50811, 38.805487], [-76.50828, 38.805118], [-76.508623, 38.804374], [-76.509724, 38.801984], [-76.510078, 38.801216], [-76.510991, 38.800828], [-76.514481, 38.799346], [-76.515813, 38.798781], [-76.52392, 38.795338], [-76.524679, 38.795016], [-76.52635, 38.793106], [-76.527479, 38.791816], [-76.526979, 38.787016], [-76.528136, 38.78579], [-76.530471, 38.783316], [-76.532487, 38.781181], [-76.535379, 38.778116], [-76.537319, 38.776451], [-76.537549, 38.776253], [-76.539231, 38.774809], [-76.539365, 38.774694], [-76.543902, 38.774416], [-76.549578, 38.772852], [-76.554874, 38.770302], [-76.557253, 38.768905], [-76.559884, 38.767361], [-76.560011, 38.762626], [-76.55917, 38.758677], [-76.5571, 38.756853], [-76.554227, 38.753955], [-76.55393, 38.752767], [-76.554321, 38.750441], [-76.555856, 38.748365], [-76.556828, 38.7476], [-76.557535, 38.744687], [-76.552743, 38.73535], [-76.549426, 38.731393], [-76.544475, 38.727705], [-76.541342, 38.728503], [-76.537135, 38.726937], [-76.53552, 38.728153], [-76.529868, 38.728435], [-76.52718, 38.727062], [-76.526198, 38.724287], [-76.527502, 38.715688], [-76.528312, 38.712744], [-76.528821, 38.710892], [-76.53067, 38.707648], [-76.531308, 38.706528], [-76.53197, 38.702833], [-76.532537, 38.699669], [-76.532535, 38.699414], [-76.532527, 38.698207], [-76.532505, 38.694703], [-76.532483, 38.691428], [-76.532432, 38.6836], [-76.532409, 38.679979], [-76.532398, 38.678363], [-76.530454, 38.670263], [-76.530013, 38.668426], [-76.52925, 38.665249], [-76.526689, 38.654578], [-76.52462, 38.645956], [-76.524223, 38.64523], [-76.515554, 38.629361], [-76.515133, 38.623755], [-76.514047, 38.622004], [-76.513602, 38.621287], [-76.512854, 38.619503], [-76.512248, 38.616574], [-76.511278, 38.615745], [-76.512452, 38.609827], [-76.512583, 38.609168], [-76.514812, 38.59793], [-76.51634, 38.590229], [-76.517209, 38.573114], [-76.516126, 38.568864], [-76.516094, 38.565719], [-76.515106, 38.555763], [-76.51552, 38.5529], [-76.517506, 38.539149], [-76.5175, 38.538119], [-76.517495, 38.53713], [-76.517487, 38.53566], [-76.515706, 38.528988], [-76.5135, 38.522885], [-76.511027, 38.516044], [-76.506023, 38.50461], [-76.50352, 38.500484], [-76.499474, 38.493813], [-76.498761, 38.492637], [-76.492795, 38.483004], [-76.492699, 38.482849], [-76.491007, 38.481151], [-76.483987, 38.474109], [-76.477548, 38.46938], [-76.473543, 38.466438], [-76.473368, 38.466288], [-76.471252, 38.464475], [-76.471094, 38.464339], [-76.455799, 38.451233], [-76.454299, 38.449642], [-76.453979, 38.44853], [-76.454588, 38.446794], [-76.454433, 38.446609], [-76.450937, 38.442422], [-76.445376, 38.439012], [-76.436271, 38.433429], [-76.435674, 38.432893], [-76.432413, 38.429967], [-76.415384, 38.414682], [-76.413733, 38.412207], [-76.413535, 38.40933], [-76.407569, 38.402967], [-76.404901, 38.398238], [-76.40271, 38.396003], [-76.402516, 38.394402], [-76.399464, 38.392459], [-76.394842, 38.389403], [-76.388348, 38.387781], [-76.381866, 38.386381], [-76.381482, 38.385252], [-76.386229, 38.382013], [-76.389166, 38.378588], [-76.390914, 38.375055], [-76.390396, 38.371998], [-76.389069, 38.368351], [-76.387182, 38.364105], [-76.386918, 38.363511], [-76.387002, 38.361267], [-76.401532, 38.344923], [-76.403101, 38.343157], [-76.40494, 38.341089], [-76.410269, 38.33386], [-76.411089, 38.332748], [-76.4121, 38.331377], [-76.415523, 38.32731], [-76.417163, 38.325361], [-76.419221, 38.322916], [-76.421377, 38.318931], [-76.422095, 38.319432], [-76.426883, 38.322774], [-76.427519, 38.32296], [-76.432944, 38.324546], [-76.438054, 38.325292], [-76.446373, 38.3238], [-76.451364, 38.323241], [-76.451401, 38.323074], [-76.451728, 38.3216], [-76.45184, 38.321096], [-76.451857, 38.321069], [-76.454098, 38.317367], [-76.455761, 38.316527], [-76.46206, 38.325012], [-76.464985, 38.325693], [-76.467077, 38.327772], [-76.468239, 38.328927], [-76.471998, 38.325014], [-76.474776, 38.322122], [-76.475013, 38.32063], [-76.476915, 38.317087], [-76.476756, 38.31614], [-76.476321, 38.313544], [-76.473587, 38.310653], [-76.470854, 38.309068], [-76.468146, 38.305663], [-76.463842, 38.299276], [-76.46362, 38.299043], [-76.461737, 38.297073], [-76.460568, 38.295849], [-76.459208, 38.294426], [-76.458652, 38.294321], [-76.45279, 38.293213], [-76.449344, 38.293027], [-76.441857, 38.291628], [-76.437579, 38.292654], [-76.435083, 38.292747], [-76.42926, 38.294426], [-76.426527, 38.296944], [-76.423912, 38.300675], [-76.422724, 38.304778], [-76.408938, 38.304498], [-76.407275, 38.305617], [-76.403115, 38.306084], [-76.401808, 38.30655], [-76.401214, 38.308508], [-76.400084, 38.309478], [-76.395728, 38.308632], [-76.381493, 38.30313], [-76.375023, 38.299419], [-76.375307, 38.297317], [-76.376622, 38.294525], [-76.387106, 38.285601], [-76.394171, 38.278233], [-76.396355, 38.274483], [-76.398852, 38.266997], [-76.398385, 38.265671], [-76.398641, 38.263924], [-76.39932, 38.259284], [-76.398957, 38.257999], [-76.397106, 38.251442], [-76.396331, 38.248695], [-76.393178, 38.241165], [-76.387961, 38.225768], [-76.385244, 38.217751], [-76.361877, 38.192048], [-76.357217, 38.18278], [-76.353516, 38.178135], [-76.348351, 38.173157], [-76.546845, 38.173157], [-76.547333, 38.175673], [-76.548639, 38.176579], [-76.548922, 38.176776], [-76.549645, 38.177278], [-76.550314, 38.183136], [-76.552957, 38.187209], [-76.559533, 38.193412], [-76.560132, 38.193977], [-76.566297, 38.198492], [-76.572581, 38.203618], [-76.580619, 38.2071], [-76.590572, 38.214166], [-76.590637, 38.214212], [-76.59433, 38.215814], [-76.605739, 38.218515], [-76.619633, 38.222805], [-76.632544, 38.225657], [-76.643929, 38.22508], [-76.6473, 38.225126], [-76.652789, 38.226389], [-76.65861, 38.229097], [-76.65991, 38.23054], [-76.66584, 38.232808], [-76.673462, 38.234401], [-76.683932, 38.234116], [-76.685981, 38.232768], [-76.687261, 38.235549], [-76.687618, 38.239376], [-76.687142, 38.241336], [-76.688617, 38.241255], [-76.699026, 38.240683], [-76.702473, 38.238442], [-76.703305, 38.236389], [-76.704888, 38.233635], [-76.707965, 38.234367], [-76.71457, 38.232683], [-76.716376, 38.233231], [-76.719857, 38.233154], [-76.719467, 38.236109], [-76.719229, 38.237882], [-76.720655, 38.239842], [-76.7222, 38.241056], [-76.723105, 38.24151], [-76.732064, 38.246003], [-76.735986, 38.242736], [-76.736461, 38.240029], [-76.740055, 38.235227], [-76.741158, 38.234589], [-76.744661, 38.232562], [-76.744788, 38.227768], [-76.74935, 38.225268], [-76.752286, 38.222121], [-76.75928, 38.224188], [-76.763906, 38.226003], [-76.772711, 38.227044], [-76.778625, 38.22847], [-76.780164, 38.230974], [-76.778857, 38.234428], [-76.776956, 38.234428], [-76.775767, 38.235642], [-76.776005, 38.238069], [-76.777906, 38.241336], [-76.777788, 38.242922], [-76.779808, 38.244509], [-76.781591, 38.245349], [-76.783611, 38.245069], [-76.785512, 38.245536], [-76.786344, 38.246936], [-76.785156, 38.247496], [-76.785512, 38.249362], [-76.78884, 38.251229], [-76.790247, 38.251302], [-76.790622, 38.251322], [-76.799179, 38.249829], [-76.800843, 38.249922], [-76.805949, 38.252275], [-76.805224, 38.253648], [-76.805725, 38.262343], [-76.806614, 38.265907], [-76.809004, 38.268972], [-76.804051, 38.273623], [-76.80215, 38.276702], [-76.802347, 38.280743], [-76.807051, 38.285414], [-76.813202, 38.286777], [-76.814034, 38.291348], [-76.818431, 38.295918], [-76.820689, 38.29769], [-76.821483, 38.29962], [-76.821569, 38.299829], [-76.824889, 38.301152], [-76.825439, 38.302962], [-76.822947, 38.30627], [-76.823066, 38.309068], [-76.825205, 38.311399], [-76.828651, 38.313543], [-76.830787, 38.319349], [-76.833167, 38.32669], [-76.832692, 38.330139], [-76.835068, 38.333868], [-76.838158, 38.335919], [-76.841605, 38.336758], [-76.833999, 38.341512], [-76.82984, 38.341884], [-76.828889, 38.344028], [-76.827106, 38.347384], [-76.837921, 38.351671], [-76.84787, 38.355444], [-76.856103, 38.358567], [-76.858955, 38.357635], [-76.859906, 38.354467], [-76.85848, 38.352603], [-76.863828, 38.343842], [-76.86668, 38.342351], [-76.869294, 38.338715], [-76.869294, 38.333682], [-76.869889, 38.331817], [-76.866086, 38.327436], [-76.862164, 38.325291], [-76.858718, 38.324825], [-76.856639, 38.322244], [-76.85539, 38.319324], [-76.851587, 38.315968], [-76.853845, 38.314289], [-76.854439, 38.312984], [-76.853726, 38.311492], [-76.853013, 38.307855], [-76.853013, 38.305996], [-76.853013, 38.304778], [-76.846715, 38.300301], [-76.845764, 38.298996], [-76.846252, 38.297718], [-76.84622, 38.291768], [-76.840383, 38.289184], [-76.839008, 38.284674], [-76.838177, 38.28195], [-76.83741, 38.277104], [-76.834803, 38.274012], [-76.833714, 38.273271], [-76.835742, 38.272108], [-76.838312, 38.268088], [-76.839501, 38.266081], [-76.84055, 38.264311], [-76.837789, 38.261609], [-76.839641, 38.257185], [-76.842139, 38.254491], [-76.847074, 38.25616], [-76.853084, 38.261475], [-76.857108, 38.264157], [-76.864292, 38.268945], [-76.864428, 38.268998], [-76.865559, 38.269442], [-76.888781, 38.278549], [-76.894033, 38.281699], [-76.904759, 38.286855], [-76.907406, 38.288467], [-76.918069, 38.291499], [-76.920932, 38.291568], [-76.92299, 38.291155], [-76.923943, 38.289725], [-76.924919, 38.290707], [-76.924864, 38.292371], [-76.926112, 38.29443], [-76.924448, 38.298786], [-76.9239, 38.301707], [-76.923716, 38.306717], [-76.922177, 38.311339], [-76.922565, 38.312298], [-76.923629, 38.314932], [-76.925496, 38.316365], [-76.929554, 38.321088], [-76.930264, 38.323091], [-76.935532, 38.326452], [-76.942132, 38.329601], [-76.946013, 38.331866], [-76.952456, 38.333229], [-76.957029, 38.335589], [-76.961004, 38.338546], [-76.967154, 38.341571], [-76.972474, 38.342783], [-76.976477, 38.342491], [-76.978251, 38.342283], [-76.975499, 38.346051], [-76.975099, 38.348748], [-76.976978, 38.353736], [-76.976601, 38.354663], [-76.976081, 38.355941], [-76.977962, 38.357979], [-76.98015, 38.36049], [-76.981909, 38.361205], [-76.983582, 38.362999], [-76.984486, 38.372549], [-76.984297, 38.374686], [-76.986274, 38.382146], [-76.9868, 38.385884], [-76.988133, 38.388574], [-76.988055, 38.391183], [-76.987571, 38.393038], [-76.98828, 38.394975], [-76.989592, 38.396329], [-76.992113, 38.398932], [-76.992131, 38.398971], [-76.993666, 38.402312], [-76.998585, 38.409294], [-77.001638, 38.421952], [-77.007481, 38.431321], [-77.01246, 38.43671], [-77.016371, 38.445572], [-77.028457, 38.445097], [-77.028458, 38.445097], [-77.040638, 38.444618], [-77.044188, 38.443016], [-77.050634, 38.439785], [-77.051817, 38.438555], [-77.06473, 38.431003], [-77.066015, 38.429209], [-77.069894, 38.426126], [-77.073115, 38.425635], [-77.075489, 38.42471], [-77.07911, 38.421783], [-77.086393, 38.414755], [-77.091073, 38.407546], [-77.099851, 38.407811], [-77.101397, 38.407047], [-77.106571, 38.406237], [-77.110586, 38.40921], [-77.113178, 38.409502], [-77.123325, 38.410646], [-77.125012, 38.408508], [-77.125418, 38.40599], [-77.127737, 38.400833], [-77.132915, 38.396637], [-77.136728, 38.391799], [-77.147306, 38.386195], [-77.151157, 38.385365], [-77.15646, 38.383001], [-77.161121, 38.379522], [-77.166048, 38.376003], [-77.168563, 38.375081], [-77.171573, 38.374559], [-77.175306, 38.372412], [-77.177156, 38.370517], [-77.179466, 38.368537], [-77.18668, 38.365636], [-77.200335, 38.361818], [-77.203535, 38.361581], [-77.207312, 38.359867], [-77.216729, 38.363159], [-77.223976, 38.368614], [-77.233833, 38.374109], [-77.236367, 38.374246], [-77.246945, 38.380217], [-77.250172, 38.382781], [-77.253003, 38.388078], [-77.25365, 38.393536], [-77.255582, 38.396346], [-77.257256, 38.397387], [-77.257567, 38.402261], [-77.261413, 38.408452], [-77.263823, 38.411263], [-77.265125, 38.413501], [-77.265608, 38.415844], [-77.263354, 38.420844], [-77.257994, 38.4278], [-77.256718, 38.430446], [-77.257506, 38.433979], [-77.261157, 38.438697], [-77.263992, 38.440744], [-77.265881, 38.443802], [-77.262929, 38.449357], [-77.262664, 38.452666], [-77.263888, 38.454724], [-77.264674, 38.456045], [-77.269409, 38.460289], [-77.27087, 38.464073], [-77.269537, 38.466454], [-77.267285, 38.467498], [-77.265732, 38.471237], [-77.266161, 38.473867], [-77.269334, 38.475374], [-77.271774, 38.477736], [-77.272354, 38.479767], [-77.27422, 38.48177], [-77.272399, 38.489935], [-77.269857, 38.492426], [-77.267014, 38.498573], [-77.26741, 38.501376], [-77.263599, 38.512344], [-77.256725, 38.51896], [-77.25756, 38.521793], [-77.255157, 38.525551], [-77.248869, 38.535044], [-77.237724, 38.55187], [-77.234908, 38.553323], [-77.22987, 38.554408], [-77.226423, 38.554142], [-77.221117, 38.555217], [-77.214942, 38.562357], [-77.210349, 38.567667], [-77.20871, 38.571134], [-77.206619, 38.57355], [-77.199537, 38.578346], [-77.191736, 38.585424], [-77.191949, 38.586188], [-77.191372, 38.5881], [-77.188116, 38.59269], [-77.186659, 38.596269], [-77.183207, 38.600381], [-77.169671, 38.60687], [-77.165485, 38.606617], [-77.160762, 38.606332], [-77.151181, 38.605753], [-77.148651, 38.6056], [-77.147807, 38.606127], [-77.14434, 38.608293], [-77.140843, 38.610478], [-77.14012, 38.610717], [-77.130517, 38.613891], [-77.130091, 38.614031], [-77.129084, 38.614364], [-77.125191, 38.619096], [-77.12463, 38.619778], [-77.115649, 38.623478], [-77.110539, 38.62682], [-77.107093, 38.630719], [-77.106182, 38.6341], [-77.106142, 38.634247], [-77.106163, 38.634243], [-77.106877, 38.634091], [-77.110064, 38.633412], [-77.114382, 38.633756], [-77.1302, 38.635017], [-77.132201, 38.641217], [-77.131901, 38.644217], [-77.135901, 38.649817], [-77.134463, 38.659968], [-77.132501, 38.673816], [-77.132312, 38.674032], [-77.122552, 38.685186], [-77.122001, 38.685816], [-77.1059, 38.696815], [-77.1027, 38.698315], [-77.099, 38.698615], [-77.095168, 38.70117], [-77.0918, 38.703415], [-77.086265, 38.706028], [-77.079948, 38.70901], [-77.080802, 38.710308], [-77.080724, 38.711277], [-77.079868, 38.71208], [-77.079563, 38.712835], [-77.078062, 38.713427], [-77.077108, 38.713091], [-77.074221, 38.712613], [-77.074209, 38.712611], [-77.073501, 38.711314], [-77.071834, 38.710085], [-77.065322, 38.709564], [-77.062191, 38.709655], [-77.053199, 38.709915], [-77.046196, 38.714431], [-77.043309, 38.718925], [-77.043254, 38.719011], [-77.042622, 38.721479], [-77.041487, 38.72591], [-77.041523, 38.728534], [-77.041541, 38.729831], [-77.041637, 38.736705], [-77.042382, 38.737785], [-77.043467, 38.739147], [-77.043079, 38.739797], [-77.042282, 38.741285], [-77.042081, 38.746723], [-77.041598, 38.759788], [-77.041552, 38.761038], [-77.041098, 38.773313], [-77.040373, 38.785355], [-77.040098, 38.789913], [-77.039498, 38.791113], [-77.039006, 38.791645], [-77.03758, 38.792778], [-77.021868, 38.805256], [-77.020499, 38.806342], [-77.015562, 38.810264], [-77.004679, 38.818907], [-77.001742, 38.821239], [-77.001492, 38.821438], [-77.001481, 38.821446], [-77.001397, 38.821513], [-77.001085, 38.821602], [-76.999997, 38.821913], [-76.999131, 38.82266], [-76.998458, 38.823241], [-76.997943, 38.823686], [-76.995947, 38.825408], [-76.992803, 38.828122], [-76.992697, 38.828213], [-76.991344, 38.829197], [-76.989041, 38.830872], [-76.987331, 38.832115], [-76.984969, 38.833833], [-76.982491, 38.835635], [-76.979497, 38.837812], [-76.972938, 38.843074], [-76.972327, 38.843565], [-76.970852, 38.844748], [-76.970809, 38.844782], [-76.966571, 38.848183], [-76.965438, 38.849091], [-76.963472, 38.850669], [-76.961941, 38.851897], [-76.958149, 38.854939], [-76.95814, 38.854947], [-76.953696, 38.858512], [-76.949861, 38.861197], [-76.949696, 38.861312], [-76.946746, 38.863622], [-76.946702, 38.863656], [-76.943641, 38.866053], [-76.93949, 38.869303], [-76.935944, 38.87208], [-76.934971, 38.872842], [-76.933805, 38.873755], [-76.933719, 38.873822], [-76.931247, 38.875758], [-76.929887, 38.876823], [-76.924035, 38.881405], [-76.923972, 38.881454], [-76.92098, 38.883797], [-76.920825, 38.883919], [-76.920195, 38.884412], [-76.919295, 38.885112], [-76.918551, 38.88569], [-76.918536, 38.885702], [-76.913303, 38.889764], [-76.913263, 38.889796], [-76.912764, 38.890183], [-76.910795, 38.891712], [-76.909395, 38.892812], [-76.910529, 38.893716], [-76.910956, 38.894057], [-76.912869, 38.895583], [-76.913413, 38.896017], [-76.919902, 38.901192], [-76.923451, 38.904023], [-76.923529, 38.904085], [-76.931251, 38.910245], [-76.931637, 38.910552], [-76.931724, 38.910622], [-76.935096, 38.913311], [-76.941445, 38.918218], [-76.94192, 38.918586], [-76.941921, 38.918586], [-76.943864, 38.920088], [-76.956051, 38.929508], [-76.957617, 38.930719], [-76.957719, 38.930797], [-76.958799, 38.931632], [-76.961374, 38.933623], [-76.96343, 38.935212], [-76.963436, 38.935217], [-76.966831, 38.937841], [-76.968159, 38.938867], [-76.973746, 38.943186], [-76.9745, 38.943768], [-76.977826, 38.94634], [-76.978434, 38.94681], [-76.985937, 38.952609], [-76.987925, 38.954146], [-76.989517, 38.955376], [-76.991893, 38.957212], [-76.997364, 38.961442], [-76.997493, 38.961541], [-76.999124, 38.962802], [-77.00165, 38.964754], [-77.002498, 38.96541], [-77.002589, 38.965484], [-77.002602, 38.965494], [-77.003693, 38.966378], [-77.007775, 38.969686], [-77.008298, 38.97011], [-77.008589, 38.970338], [-77.011057, 38.972267], [-77.013798, 38.97441], [-77.015598, 38.97591], [-77.017323, 38.977227], [-77.018655, 38.978243], [-77.018706, 38.978283], [-77.020537, 38.979679], [-77.026591, 38.9843], [-77.026635, 38.984334], [-77.026696, 38.984381], [-77.031235, 38.987845], [-77.033707, 38.989732], [-77.036299, 38.99171], [-77.036461, 38.991827], [-77.036769, 38.99205], [-77.040999, 38.99511], [-77.042389, 38.994065], [-77.046541, 38.990943], [-77.051663, 38.987092], [-77.05222, 38.986673], [-77.052937, 38.986134], [-77.054299, 38.98511], [-77.062565, 38.978755], [-77.066691, 38.975583], [-77.068951, 38.973846], [-77.071641, 38.971778], [-77.077437, 38.967322], [-77.077442, 38.967318], [-77.080418, 38.96503], [-77.08224, 38.963629], [-77.082706, 38.963271], [-77.083839, 38.9624], [-77.08578, 38.960907], [-77.085812, 38.960883], [-77.087664, 38.959459], [-77.091355, 38.956621], [-77.091399, 38.956587], [-77.0915, 38.95651], [-77.093866, 38.954555], [-77.09809, 38.951066], [-77.100527, 38.949053], [-77.1007, 38.94891], [-77.101278, 38.94853], [-77.1045, 38.94641], [-77.112478, 38.940101], [-77.112532, 38.940058], [-77.119759, 38.934343], [-77.119797, 38.93437], [-77.127601, 38.94001], [-77.131901, 38.94741], [-77.137701, 38.95531], [-77.146601, 38.96421], [-77.148179, 38.965002], [-77.149924, 38.965501], [-77.151084, 38.965832], [-77.165301, 38.96801], [-77.166901, 38.96811], [-77.168001, 38.96741], [-77.171827, 38.967508], [-77.171901, 38.96751], [-77.179604, 38.968412], [-77.179856, 38.968442], [-77.183002, 38.96881], [-77.188302, 38.96751], [-77.197502, 38.96681], [-77.202502, 38.96791], [-77.203602, 38.96891], [-77.209302, 38.97041], [-77.211502, 38.96941], [-77.221502, 38.97131], [-77.224969, 38.973349], [-77.228395, 38.978404], [-77.229992, 38.979858], [-77.231601, 38.979917], [-77.232268, 38.979502], [-77.234803, 38.97631], [-77.241081, 38.981206], [-77.244621, 38.982535], [-77.246172, 38.985749], [-77.248303, 38.992309], [-77.249203, 38.993709], [-77.253003, 38.995709], [-77.255703, 39.002409], [-77.251803, 39.011409], [-77.246903, 39.014809], [-77.244603, 39.020109], [-77.244927, 39.021219], [-77.246003, 39.024909], [-77.248383, 39.026892], [-77.248403, 39.026909], [-77.255303, 39.030009], [-77.258328, 39.030546], [-77.266004, 39.031909], [-77.274706, 39.034091], [-77.293105, 39.046508], [-77.301005, 39.049508], [-77.308458, 39.051429], [-77.310705, 39.052008], [-77.314905, 39.052208], [-77.324206, 39.056508], [-77.328281, 39.057795], [-77.333706, 39.059508], [-77.33373, 39.059625], [-77.33401, 39.060989], [-77.335511, 39.061771], [-77.340287, 39.062991], [-77.3421, 39.062836], [-77.350311, 39.062133], [-77.359702, 39.062004], [-77.366822, 39.06117], [-77.367529, 39.061087], [-77.369604, 39.061145], [-77.375079, 39.061297], [-77.378496, 39.062324], [-77.380108, 39.062808], [-77.38568, 39.061987], [-77.399204, 39.064784], [-77.401914, 39.064639], [-77.404593, 39.064496], [-77.41543, 39.066435], [-77.420711, 39.066737], [-77.42318, 39.066878], [-77.423246, 39.066895], [-77.4374, 39.070611], [-77.443608, 39.071358], [-77.451251, 39.072278], [-77.452827, 39.072468], [-77.456963, 39.073434], [-77.458202, 39.073723], [-77.460818, 39.074873], [-77.46145, 39.075151], [-77.462617, 39.076248], [-77.464965, 39.079736], [-77.465031, 39.079834], [-77.46805, 39.084318], [-77.468698, 39.085281], [-77.469443, 39.086387], [-77.472414, 39.092524], [-77.47701, 39.100331], [-77.477553, 39.101009], [-77.481279, 39.105658], [-77.4858, 39.109303], [-77.494955, 39.113038], [-77.499711, 39.11395], [-77.502076, 39.114653], [-77.51532, 39.118591], [-77.519929, 39.120925], [-77.520986, 39.122499], [-77.524559, 39.127821], [-77.526728, 39.137315], [-77.526791, 39.138323], [-77.527282, 39.146236], [-77.524872, 39.148455], [-77.524416, 39.150031], [-77.521222, 39.161057], [-77.516426, 39.170891], [-77.510631, 39.178484], [-77.505162, 39.18205], [-77.485971, 39.185665], [-77.478596, 39.189168], [-77.477362, 39.190495], [-77.475013, 39.194934], [-77.475929, 39.202024], [-77.47361, 39.208407], [-77.470113, 39.21184], [-77.459883, 39.218682], [-77.458922, 39.220336], [-77.457943, 39.222023], [-77.45768, 39.22502], [-77.45812, 39.22614], [-77.46021, 39.228359], [-77.471213, 39.234509], [-77.480243, 39.241243], [-77.480807, 39.241664], [-77.484664, 39.246123], [-77.486813, 39.247586], [-77.496606, 39.251045], [-77.508427, 39.25263], [-77.519634, 39.257232], [-77.520986, 39.258491], [-77.522486, 39.259086], [-77.534461, 39.262361], [-77.540581, 39.264947], [-77.543228, 39.266937], [-77.544258, 39.26966], [-77.545846, 39.271535], [-77.546555, 39.272127], [-77.546597, 39.272162], [-77.551054, 39.275882], [-77.551268, 39.276234], [-77.553114, 39.279268], [-77.560854, 39.286152], [-77.562768, 39.294501], [-77.561826, 39.301913], [-77.56321, 39.303903], [-77.565831, 39.30562], [-77.566596, 39.306121], [-77.570041, 39.30635], [-77.578491, 39.305228], [-77.583092, 39.303683], [-77.588235, 39.301955], [-77.592739, 39.30129], [-77.598892, 39.301883], [-77.603949, 39.303186], [-77.60536, 39.303549], [-77.6059, 39.303688], [-77.606857, 39.303596], [-77.615939, 39.302722], [-77.631657, 39.306667], [-77.631698, 39.306677], [-77.636101, 39.307782], [-77.639529, 39.308158], [-77.640282, 39.308241], [-77.643276, 39.308952], [-77.643996, 39.309122], [-77.645455, 39.309469], [-77.650997, 39.310784], [-77.66613, 39.317008], [-77.671341, 39.321675], [-77.675846, 39.324192], [-77.677123, 39.324077], [-77.681706, 39.323666], [-77.687124, 39.319914], [-77.692984, 39.31845], [-77.697461, 39.318633], [-77.707709, 39.321559], [-77.715865, 39.320641], [-77.719519, 39.321314], [-77.726856, 39.321643], [-77.727379, 39.321666], [-77.727989, 39.322187], [-77.730533, 39.324359], [-77.730914, 39.324684], [-77.735009, 39.327015], [-77.754379, 39.333432], [-77.755789, 39.333899], [-77.757873, 39.335769], [-77.759615, 39.337331], [-77.761115, 39.339757], [-77.761084, 39.342524], [-77.760435, 39.344171], [-77.759315, 39.345314], [-77.750387, 39.34945], [-77.74593, 39.353221], [-77.743874, 39.359947], [-77.744108, 39.364445], [-77.744144, 39.365139], [-77.753274, 39.37832], [-77.753804, 39.379624], [-77.753389, 39.382094], [-77.752209, 39.383328], [-77.749715, 39.384171], [-77.740765, 39.385409], [-77.738084, 39.386211], [-77.736901, 39.387238], [-77.736317, 39.387744], [-77.735905, 39.389665], [-77.736409, 39.392684], [-77.740012, 39.401694], [-77.747478, 39.41093], [-77.75268, 39.420174], [-77.75309, 39.423262], [-77.754681, 39.424658], [-77.75872, 39.42681], [-77.763319, 39.428436], [-77.764726, 39.428364], [-77.77485, 39.427845], [-77.787266, 39.429335], [-77.792751, 39.430593], [-77.794615, 39.431431], [-77.797894, 39.432907], [-77.798855, 39.433339], [-77.802542, 39.435969], [-77.802684, 39.436203], [-77.803249, 39.437136], [-77.802866, 39.439285], [-77.80086, 39.440841], [-77.78856, 39.442829], [-77.786052, 39.444224], [-77.78558, 39.445367], [-77.78611, 39.447197], [-77.7931, 39.451406], [-77.798144, 39.455981], [-77.799294, 39.458383], [-77.798468, 39.46067], [-77.796196, 39.461722], [-77.793157, 39.462042], [-77.783539, 39.460073], [-77.780471, 39.459867], [-77.779202, 39.460392], [-77.777815, 39.461924], [-77.777815, 39.462816], [-77.778522, 39.463663], [-77.789645, 39.467827], [-77.795634, 39.471259], [-77.796755, 39.472448], [-77.798201, 39.475719], [-77.797787, 39.47876], [-77.796695, 39.480498], [-77.795485, 39.481824], [-77.788519, 39.485048], [-77.78176, 39.487128], [-77.771723, 39.489207], [-77.769125, 39.490281], [-77.768044, 39.490839], [-77.767087, 39.491333], [-77.765645, 39.492922], [-77.765551, 39.493025], [-77.765427, 39.49417], [-77.765403, 39.494397], [-77.765993, 39.495724], [-77.768442, 39.497783], [-77.768783, 39.49796], [-77.77095, 39.499087], [-77.774374, 39.4995], [-77.781608, 39.499067], [-77.784442, 39.498061], [-77.786539, 39.496598], [-77.789757, 39.492207], [-77.791765, 39.490789], [-77.792913, 39.490443], [-77.795631, 39.489623], [-77.80183, 39.489395], [-77.807821, 39.490241], [-77.820781, 39.4939], [-77.825499, 39.494258], [-77.831909, 39.494744], [-77.845666, 39.498628], [-77.847639, 39.500698], [-77.848112, 39.502093], [-77.847611, 39.503351], [-77.845103, 39.505845], [-77.829045, 39.514425], [-77.82565, 39.516895], [-77.823555, 39.524077], [-77.823762, 39.525907], [-77.825357, 39.529177], [-77.827188, 39.530458], [-77.833509, 39.532628], [-77.836935, 39.53217], [-77.839061, 39.531117], [-77.840536, 39.529196], [-77.840651, 39.520941], [-77.84192, 39.51847], [-77.850747, 39.515403], [-77.860195, 39.514325], [-77.86368, 39.515032], [-77.86494, 39.516383], [-77.866132, 39.517661], [-77.866518, 39.520039], [-77.866138, 39.524727], [-77.865078, 39.528226], [-77.864315, 39.534813], [-77.864434, 39.536483], [-77.865351, 39.538381], [-77.87153, 39.544278], [-77.886436, 39.551947], [-77.888945, 39.55595], [-77.888648, 39.558054], [-77.88801, 39.559127], [-77.887968, 39.559198], [-77.886135, 39.560432], [-77.880651, 39.562617], [-77.878451, 39.563493], [-77.872723, 39.563895], [-77.868997, 39.563709], [-77.865734, 39.563547], [-77.86485, 39.563642], [-77.855847, 39.564607], [-77.842174, 39.564333], [-77.83633, 39.56637], [-77.834733, 39.568754], [-77.833217, 39.571016], [-77.832303, 39.574818], [-77.830775, 39.581178], [-77.830233, 39.584625], [-77.830229, 39.584647], [-77.829814, 39.587288], [-77.829753, 39.59105], [-77.831647, 39.600296], [-77.831813, 39.601105], [-77.833568, 39.602936], [-77.838008, 39.606125], [-77.842785, 39.607255], [-77.846872, 39.607202], [-77.853436, 39.607117], [-77.8578, 39.60788], [-77.86265, 39.609333], [-77.866761, 39.610564], [-77.868679, 39.611138], [-77.874718, 39.614293], [-77.885124, 39.615775], [-77.887017, 39.614518], [-77.886959, 39.613329], [-77.881936, 39.608112], [-77.88111, 39.606214], [-77.880993, 39.602852], [-77.881823, 39.600039], [-77.882977, 39.598828], [-77.885077, 39.597937], [-77.888477, 39.597343], [-77.909442, 39.601451], [-77.91641, 39.602816], [-77.916836, 39.602942], [-77.923298, 39.604852], [-77.925902, 39.607553], [-77.925988, 39.607642], [-77.928738, 39.613908], [-77.932862, 39.617676], [-77.937492, 39.61915], [-77.94194, 39.61879], [-77.942625, 39.618274], [-77.944622, 39.616772], [-77.944133, 39.614617], [-77.938362, 39.61258], [-77.93545, 39.608076], [-77.935861, 39.602017], [-77.936371, 39.594508], [-77.93905, 39.587139], [-77.94215, 39.584933], [-77.946182, 39.584814], [-77.949836, 39.58711], [-77.951955, 39.592709], [-77.952152, 39.597272], [-77.950916, 39.601163], [-77.950599, 39.603944], [-77.952104, 39.606358], [-77.957642, 39.608614], [-77.962092, 39.608702], [-77.966223, 39.607435], [-77.968999, 39.605778], [-77.97015, 39.605091], [-77.973967, 39.601071], [-77.976686, 39.599744], [-77.984815, 39.59942], [-77.991437, 39.600194], [-77.991641, 39.6002], [-78.00233, 39.600488], [-78.006734, 39.601337], [-78.009985, 39.602893], [-78.011343, 39.604083], [-78.022402, 39.6196], [-78.023896, 39.621697], [-78.03014, 39.627462], [-78.035992, 39.63572], [-78.03886, 39.638121], [-78.047672, 39.643107], [-78.04995, 39.645349], [-78.051563, 39.647674], [-78.051932, 39.648207], [-78.060243, 39.654737], [-78.060243, 39.6683], [-76.257343, 39.6683], [-76.257343, 39.410792], [-76.259035, 39.410057]]]]}}, {"type": "Feature", "properties": {"name": "Virginia"}, "geometry": {"type": "Polygon", "coordinates": [[[-78.033187, 39.264622], [-78.033185, 39.264621], [-78.032841, 39.264403], [-78.007336, 39.247946], [-77.991326, 39.237615], [-77.919412, 39.191212], [-77.919407, 39.191209], [-77.860929, 39.153475], [-77.860884, 39.153446], [-77.856029, 39.150314], [-77.849083, 39.145831], [-77.828302, 39.132422], [-77.828157, 39.132329], [-77.822182, 39.139985], [-77.82223, 39.142734], [-77.82299, 39.145451], [-77.822874, 39.147755], [-77.821413, 39.15241], [-77.818446, 39.155279], [-77.813206, 39.165023], [-77.811295, 39.167563], [-77.809125, 39.168567], [-77.806395, 39.171924], [-77.805991, 39.172421], [-77.805099, 39.174222], [-77.804415, 39.178045], [-77.804712, 39.179419], [-77.800015, 39.188723], [-77.797943, 39.192826], [-77.797714, 39.19424], [-77.798478, 39.199574], [-77.79819, 39.200658], [-77.794596, 39.206299], [-77.793961, 39.208815], [-77.793631, 39.210125], [-77.788763, 39.215243], [-77.78364, 39.224081], [-77.781268, 39.226909], [-77.778068, 39.229305], [-77.771415, 39.236776], [-77.77094, 39.238222], [-77.767277, 39.24938], [-77.770589, 39.249393], [-77.770876, 39.24976], [-77.770669, 39.255262], [-77.770281, 39.255977], [-77.768992, 39.256417], [-77.768, 39.257657], [-77.766525, 39.25734], [-77.762844, 39.258445], [-77.762231, 39.261057], [-77.762194, 39.261214], [-77.761768, 39.263031], [-77.761217, 39.263721], [-77.758733, 39.268114], [-77.758412, 39.269197], [-77.755698, 39.274575], [-77.755193, 39.275191], [-77.753105, 39.27734], [-77.75306, 39.277971], [-77.753357, 39.280331], [-77.752726, 39.283373], [-77.750267, 39.289284], [-77.747287, 39.295001], [-77.734899, 39.312409], [-77.730047, 39.315666], [-77.721638, 39.318494], [-77.719946, 39.319693], [-77.719519, 39.321314], [-77.715865, 39.320641], [-77.707709, 39.321559], [-77.697461, 39.318633], [-77.692984, 39.31845], [-77.687124, 39.319914], [-77.681706, 39.323666], [-77.677123, 39.324077], [-77.675846, 39.324192], [-77.671341, 39.321675], [-77.66613, 39.317008], [-77.650997, 39.310784], [-77.645455, 39.309469], [-77.643996, 39.309122], [-77.643276, 39.308952], [-77.640282, 39.308241], [-77.639529, 39.308158], [-77.636101, 39.307782], [-77.631698, 39.306677], [-77.631657, 39.306667], [-77.615939, 39.302722], [-77.606857, 39.303596], [-77.6059, 39.303688], [-77.60536, 39.303549], [-77.603949, 39.303186], [-77.598892, 39.301883], [-77.592739, 39.30129], [-77.588235, 39.301955], [-77.583092, 39.303683], [-77.578491, 39.305228], [-77.570041, 39.30635], [-77.566596, 39.306121], [-77.565831, 39.30562], [-77.56321, 39.303903], [-77.561826, 39.301913], [-77.562768, 39.294501], [-77.560854, 39.286152], [-77.553114, 39.279268], [-77.551268, 39.276234], [-77.551054, 39.275882], [-77.546597, 39.272162], [-77.546555, 39.272127], [-77.545846, 39.271535], [-77.544258, 39.26966], [-77.543228, 39.266937], [-77.540581, 39.264947], [-77.534461, 39.262361], [-77.522486, 39.259086], [-77.520986, 39.258491], [-77.519634, 39.257232], [-77.508427, 39.25263], [-77.496606, 39.251045], [-77.486813, 39.247586], [-77.484664, 39.246123], [-77.480807, 39.241664], [-77.480243, 39.241243], [-77.471213, 39.234509], [-77.46021, 39.228359], [-77.45812, 39.22614], [-77.45768, 39.22502], [-77.457943, 39.222023], [-77.458922, 39.220336], [-77.459883, 39.218682], [-77.470113, 39.21184], [-77.47361, 39.208407], [-77.475929, 39.202024], [-77.475013, 39.194934], [-77.477362, 39.190495], [-77.478596, 39.189168], [-77.485971, 39.185665], [-77.505162, 39.18205], [-77.510631, 39.178484], [-77.516426, 39.170891], [-77.521222, 39.161057], [-77.524416, 39.150031], [-77.524872, 39.148455], [-77.527282, 39.146236], [-77.526791, 39.138323], [-77.526728, 39.137315], [-77.524559, 39.127821], [-77.520986, 39.122499], [-77.519929, 39.120925], [-77.51532, 39.118591], [-77.502076, 39.114653], [-77.499711, 39.11395], [-77.494955, 39.113038], [-77.4858, 39.109303], [-77.481279, 39.105658], [-77.477553, 39.101009], [-77.47701, 39.100331], [-77.472414, 39.092524], [-77.469443, 39.086387], [-77.468698, 39.085281], [-77.46805, 39.084318], [-77.465031, 39.079834], [-77.464965, 39.079736], [-77.462617, 39.076248], [-77.46145, 39.075151], [-77.460818, 39.074873], [-77.458202, 39.073723], [-77.456963, 39.073434], [-77.452827, 39.072468], [-77.451251, 39.072278], [-77.443608, 39.071358], [-77.4374, 39.070611], [-77.423246, 39.066895], [-77.42318, 39.066878], [-77.420711, 39.066737], [-77.41543, 39.066435], [-77.404593, 39.064496], [-77.401914, 39.064639], [-77.399204, 39.064784], [-77.38568, 39.061987], [-77.380108, 39.062808], [-77.378496, 39.062324], [-77.375079, 39.061297], [-77.369604, 39.061145], [-77.367529, 39.061087], [-77.366822, 39.06117], [-77.359702, 39.062004], [-77.350311, 39.062133], [-77.3421, 39.062836], [-77.340287, 39.062991], [-77.335511, 39.061771], [-77.33401, 39.060989], [-77.33373, 39.059625], [-77.333706, 39.059508], [-77.328281, 39.057795], [-77.324206, 39.056508], [-77.314905, 39.052208], [-77.310705, 39.052008], [-77.308458, 39.051429], [-77.301005, 39.049508], [-77.293105, 39.046508], [-77.274706, 39.034091], [-77.266004, 39.031909], [-77.258328, 39.030546], [-77.255303, 39.030009], [-77.248403, 39.026909], [-77.248383, 39.026892], [-77.246003, 39.024909], [-77.244927, 39.021219], [-77.244603, 39.020109], [-77.246903, 39.014809], [-77.251803, 39.011409], [-77.255703, 39.002409], [-77.253003, 38.995709], [-77.249203, 38.993709], [-77.248303, 38.992309], [-77.246172, 38.985749], [-77.244621, 38.982535], [-77.241081, 38.981206], [-77.234803, 38.97631], [-77.232268, 38.979502], [-77.231601, 38.979917], [-77.229992, 38.979858], [-77.228395, 38.978404], [-77.224969, 38.973349], [-77.221502, 38.97131], [-77.211502, 38.96941], [-77.209302, 38.97041], [-77.203602, 38.96891], [-77.202502, 38.96791], [-77.197502, 38.96681], [-77.188302, 38.96751], [-77.183002, 38.96881], [-77.179856, 38.968442], [-77.179604, 38.968412], [-77.171901, 38.96751], [-77.171827, 38.967508], [-77.168001, 38.96741], [-77.166901, 38.96811], [-77.165301, 38.96801], [-77.151084, 38.965832], [-77.149924, 38.965501], [-77.148179, 38.965002], [-77.146601, 38.96421], [-77.137701, 38.95531], [-77.131901, 38.94741], [-77.127601, 38.94001], [-77.119797, 38.93437], [-77.119759, 38.934343], [-77.1179, 38.932411], [-77.116816, 38.929493], [-77.1166, 38.928911], [-77.1134, 38.925211], [-77.107361, 38.920022], [-77.1063, 38.919111], [-77.105402, 38.917192], [-77.1034, 38.912911], [-77.101645, 38.911475], [-77.1012, 38.911111], [-77.101016, 38.910983], [-77.0937, 38.905911], [-77.0902, 38.904211], [-77.082839, 38.902095], [-77.0822, 38.901911], [-77.079297, 38.901623], [-77.078356, 38.90153], [-77.073499, 38.901048], [-77.070668, 38.900767], [-77.070622, 38.900763], [-77.070099, 38.900711], [-77.069371, 38.900366], [-77.068199, 38.899811], [-77.067299, 38.899211], [-77.064658, 38.891844], [-77.063499, 38.888611], [-77.058254, 38.880069], [-77.055199, 38.880012], [-77.054099, 38.879112], [-77.051099, 38.875212], [-77.051299, 38.873212], [-77.049099, 38.870712], [-77.046299, 38.871312], [-77.045599, 38.873012], [-77.046599, 38.874912], [-77.045399, 38.875212], [-77.043781, 38.874287], [-77.043454, 38.874101], [-77.043299, 38.874012], [-77.041093, 38.871724], [-77.040599, 38.871212], [-77.039099, 38.868112], [-77.038899, 38.865812], [-77.039299, 38.864312], [-77.034004, 38.857142], [-77.031832, 38.850897], [-77.031698, 38.850512], [-77.033373, 38.844599], [-77.034541, 38.840473], [-77.038549, 38.839262], [-77.041699, 38.840212], [-77.044199, 38.840212], [-77.044488, 38.839599], [-77.044999, 38.838512], [-77.044899, 38.834712], [-77.043499, 38.833212], [-77.042599, 38.833812], [-77.041199, 38.833712], [-77.039199, 38.832212], [-77.03856, 38.830123], [-77.038098, 38.828612], [-77.038884, 38.822954], [-77.039098, 38.821413], [-77.038788, 38.819617], [-77.038098, 38.815613], [-77.037356, 38.814187], [-77.037447, 38.813398], [-77.038, 38.808603], [-77.038403, 38.805109], [-77.038801, 38.801658], [-77.038898, 38.800813], [-77.038904, 38.800297], [-77.038929, 38.798167], [-77.038943, 38.796988], [-77.038993, 38.792767], [-77.039006, 38.791645], [-77.039498, 38.791113], [-77.040098, 38.789913], [-77.040373, 38.785355], [-77.041098, 38.773313], [-77.041552, 38.761038], [-77.041598, 38.759788], [-77.042081, 38.746723], [-77.042282, 38.741285], [-77.043079, 38.739797], [-77.043467, 38.739147], [-77.042382, 38.737785], [-77.041637, 38.736705], [-77.041541, 38.729831], [-77.041523, 38.728534], [-77.041487, 38.72591], [-77.042622, 38.721479], [-77.043254, 38.719011], [-77.043309, 38.718925], [-77.046196, 38.714431], [-77.053199, 38.709915], [-77.062191, 38.709655], [-77.065322, 38.709564], [-77.071834, 38.710085], [-77.073501, 38.711314], [-77.074209, 38.712611], [-77.074221, 38.712613], [-77.077108, 38.713091], [-77.078062, 38.713427], [-77.079563, 38.712835], [-77.079868, 38.71208], [-77.080724, 38.711277], [-77.080802, 38.710308], [-77.079948, 38.70901], [-77.086265, 38.706028], [-77.0918, 38.703415], [-77.095168, 38.70117], [-77.099, 38.698615], [-77.1027, 38.698315], [-77.1059, 38.696815], [-77.122001, 38.685816], [-77.122552, 38.685186], [-77.132312, 38.674032], [-77.132501, 38.673816], [-77.134463, 38.659968], [-77.135901, 38.649817], [-77.131901, 38.644217], [-77.132201, 38.641217], [-77.1302, 38.635017], [-77.14407, 38.635728], [-77.147633, 38.635107], [-77.158091, 38.636871], [-77.160943, 38.634004], [-77.163082, 38.631208], [-77.168906, 38.625452], [-77.174902, 38.624217], [-77.180207, 38.623262], [-77.181999, 38.622023], [-77.18432, 38.621465], [-77.185903, 38.621516], [-77.190447, 38.619572], [-77.191648, 38.619168], [-77.194474, 38.619452], [-77.197887, 38.619413], [-77.200536, 38.6187], [-77.201969, 38.617675], [-77.203696, 38.618172], [-77.205254, 38.620707], [-77.205103, 38.623917], [-77.205601, 38.625986], [-77.211023, 38.630027], [-77.212469, 38.632933], [-77.213827, 38.635664], [-77.215701, 38.63707], [-77.214897, 38.637892], [-77.208717, 38.637614], [-77.203369, 38.64012], [-77.198021, 38.646803], [-77.195169, 38.649123], [-77.193268, 38.650887], [-77.194337, 38.652743], [-77.197784, 38.656177], [-77.200755, 38.658033], [-77.203488, 38.658497], [-77.207053, 38.657383], [-77.2105, 38.656548], [-77.213589, 38.656826], [-77.219531, 38.657847], [-77.22476, 38.657662], [-77.226068, 38.66026], [-77.229989, 38.661652], [-77.231891, 38.66258], [-77.233897, 38.661336], [-77.235931, 38.660074], [-77.233317, 38.656641], [-77.232532, 38.656042], [-77.227969, 38.652557], [-77.224404, 38.648288], [-77.223928, 38.645968], [-77.224404, 38.644761], [-77.226068, 38.642348], [-77.227375, 38.640491], [-77.227595, 38.63989], [-77.228326, 38.637892], [-77.231249, 38.636947], [-77.234199, 38.636561], [-77.237213, 38.637772], [-77.238515, 38.638852], [-77.240604, 38.638917], [-77.244216, 38.637314], [-77.246109, 38.635719], [-77.246704, 38.635217], [-77.248087, 38.632313], [-77.248904, 38.628617], [-77.248403, 38.626309], [-77.24683, 38.624287], [-77.245835, 38.623008], [-77.245104, 38.620717], [-77.246152, 38.61756], [-77.247808, 38.612638], [-77.2497, 38.611355], [-77.249954, 38.606139], [-77.251975, 38.604281], [-77.254946, 38.60326], [-77.256372, 38.600845], [-77.256401, 38.60042], [-77.25648, 38.599249], [-77.256491, 38.59908], [-77.254708, 38.595829], [-77.251208, 38.593463], [-77.24681, 38.593994], [-77.247003, 38.590618], [-77.255304, 38.586915], [-77.25795, 38.583396], [-77.260515, 38.584591], [-77.263859, 38.585054], [-77.264182, 38.583804], [-77.26443, 38.582845], [-77.265304, 38.580319], [-77.26083, 38.56533], [-77.25703, 38.561197], [-77.257043, 38.560518], [-77.257044, 38.56045], [-77.26032, 38.559843], [-77.261594, 38.558848], [-77.261634, 38.556692], [-77.263826, 38.555436], [-77.272584, 38.551438], [-77.276603, 38.54712], [-77.276595, 38.546931], [-77.276303, 38.53962], [-77.27858, 38.536875], [-77.279123, 38.53398], [-77.283111, 38.533014], [-77.285487, 38.53069], [-77.285992, 38.52926], [-77.286426, 38.528027], [-77.286438, 38.527994], [-77.283937, 38.527884], [-77.282754, 38.526253], [-77.283503, 38.525221], [-77.285923, 38.522196], [-77.286035, 38.522056], [-77.286557, 38.519441], [-77.288618, 38.519151], [-77.291103, 38.515721], [-77.293925, 38.516093], [-77.297728, 38.514791], [-77.299392, 38.512002], [-77.299362, 38.511503], [-77.299273, 38.510049], [-77.296421, 38.509212], [-77.29634, 38.507109], [-77.299709, 38.503149], [-77.303485, 38.499257], [-77.308448, 38.496633], [-77.310334, 38.493926], [-77.310177, 38.492051], [-77.315736, 38.48092], [-77.315575, 38.478915], [-77.31559, 38.47889], [-77.322622, 38.467131], [-77.323207, 38.463334], [-77.324262, 38.458705], [-77.324098, 38.454276], [-77.32544, 38.44885], [-77.325054, 38.445535], [-77.326291, 38.443598], [-77.324502, 38.441832], [-77.323305, 38.438499], [-77.322694, 38.435538], [-77.322872, 38.434171], [-77.322458, 38.429706], [-77.321095, 38.427788], [-77.319036, 38.417803], [-77.312436, 38.401825], [-77.31108, 38.400479], [-77.310719, 38.397669], [-77.311249, 38.397021], [-77.314128, 38.396509], [-77.31698, 38.395485], [-77.316937, 38.393518], [-77.316861, 38.390082], [-77.315409, 38.388952], [-77.317288, 38.383576], [-77.312132, 38.379618], [-77.304228, 38.37505], [-77.296077, 38.369797], [-77.293438, 38.365034], [-77.288145, 38.359477], [-77.287281, 38.35251], [-77.28835, 38.351286], [-77.287097, 38.3488], [-77.286202, 38.347025], [-77.279633, 38.339444], [-77.271452, 38.335482], [-77.267737, 38.333845], [-77.264552, 38.332442], [-77.25669, 38.331719], [-77.250073, 38.331671], [-77.240098, 38.330988], [-77.228321, 38.333525], [-77.22383, 38.335115], [-77.212394, 38.338532], [-77.204491, 38.340408], [-77.201104, 38.34015], [-77.199444, 38.340285], [-77.193502, 38.340766], [-77.180185, 38.341099], [-77.17408, 38.342651], [-77.170661, 38.343786], [-77.162692, 38.345994], [-77.155191, 38.351047], [-77.145769, 38.361463], [-77.138224, 38.367917], [-77.1303, 38.367174], [-77.124699, 38.36676], [-77.116156, 38.36809], [-77.109667, 38.369418], [-77.104717, 38.369655], [-77.098122, 38.368826], [-77.094665, 38.367715], [-77.090089, 38.367275], [-77.08481, 38.368297], [-77.078174, 38.372004], [-77.070714, 38.377636], [-77.059811, 38.391422], [-77.056783, 38.3962], [-77.05342, 38.398813], [-77.051437, 38.399083], [-77.043526, 38.400548], [-77.041524, 38.400186], [-77.024866, 38.386791], [-77.020732, 38.382912], [-77.018498, 38.381941], [-77.011827, 38.374554], [-77.013745, 38.373344], [-77.015911, 38.371024], [-77.015718, 38.368999], [-77.014624, 38.363048], [-77.014471, 38.362217], [-77.014556, 38.359248], [-77.014692, 38.354461], [-77.016194, 38.346232], [-77.016244, 38.345617], [-77.016932, 38.341697], [-77.016123, 38.339543], [-77.01485, 38.33818], [-77.014727, 38.336853], [-77.015527, 38.3345], [-77.014907, 38.332763], [-77.016844, 38.33095], [-77.020947, 38.329273], [-77.021618, 38.32582], [-77.02169, 38.324396], [-77.022773, 38.322858], [-77.024277, 38.322053], [-77.02512, 38.321709], [-77.026892, 38.322147], [-77.029625, 38.320189], [-77.031883, 38.319349], [-77.036637, 38.319722], [-77.039608, 38.31879], [-77.042341, 38.322519], [-77.044243, 38.323079], [-77.044965, 38.322809], [-77.046738, 38.322147], [-77.050779, 38.322426], [-77.052653, 38.322671], [-77.054344, 38.322892], [-77.055414, 38.321307], [-77.05779, 38.320562], [-77.056483, 38.317112], [-77.054938, 38.315527], [-77.051967, 38.315247], [-77.048996, 38.313755], [-77.047214, 38.31189], [-77.045787, 38.311704], [-77.042935, 38.309466], [-77.04044, 38.309372], [-77.03533, 38.310864], [-77.030683, 38.311623], [-77.028837, 38.310875], [-77.028413, 38.30875], [-77.028213, 38.305835], [-77.026304, 38.302685], [-77.023159, 38.300509], [-77.021025, 38.30118], [-77.017312, 38.298595], [-77.014409, 38.294375], [-77.01214, 38.29298], [-77.010794, 38.291592], [-77.009941, 38.288832], [-77.001869, 38.281738], [-77.001223, 38.278313], [-77.000997, 38.276128], [-77.000866, 38.274861], [-76.998608, 38.273928], [-76.998552, 38.273916], [-76.998375, 38.273879], [-76.996251, 38.27343], [-76.995518, 38.273275], [-76.993412, 38.273275], [-76.992953, 38.273275], [-76.991953, 38.273275], [-76.99113, 38.273595], [-76.990255, 38.273935], [-76.983216, 38.274648], [-76.981372, 38.274214], [-76.972586, 38.26707], [-76.971105, 38.265866], [-76.96215, 38.256486], [-76.961573, 38.254724], [-76.961106, 38.253297], [-76.960819, 38.250272], [-76.957796, 38.243183], [-76.957017, 38.240201], [-76.956954, 38.236823], [-76.957807, 38.234579], [-76.95936, 38.232768], [-76.962375, 38.230093], [-76.964928, 38.229756], [-76.966553, 38.229542], [-76.967335, 38.227185], [-76.964677, 38.22025], [-76.96282, 38.218224], [-76.962311, 38.214075], [-76.955908, 38.211102], [-76.951449, 38.209031], [-76.94902, 38.208418], [-76.937134, 38.202384], [-76.930668, 38.201223], [-76.922312, 38.200888], [-76.916922, 38.199751], [-76.910832, 38.197073], [-76.904787, 38.192847], [-76.90241, 38.190483], [-76.902241, 38.190369], [-76.89674, 38.186665], [-76.893414, 38.184982], [-76.88457, 38.178755], [-76.882768, 38.176457], [-76.876948, 38.173157], [-78.060243, 38.173157], [-78.060243, 39.281752], [-78.033187, 39.264622]]]}}, {"type": "Feature", "properties": {"name": "West Virginia"}, "geometry": {"type": "Polygon", "coordinates": [[[-78.051932, 39.648207], [-78.051563, 39.647674], [-78.04995, 39.645349], [-78.047672, 39.643107], [-78.03886, 39.638121], [-78.035992, 39.63572], [-78.03014, 39.627462], [-78.023896, 39.621697], [-78.022402, 39.6196], [-78.011343, 39.604083], [-78.009985, 39.602893], [-78.006734, 39.601337], [-78.00233, 39.600488], [-77.991641, 39.6002], [-77.991437, 39.600194], [-77.984815, 39.59942], [-77.976686, 39.599744], [-77.973967, 39.601071], [-77.97015, 39.605091], [-77.968999, 39.605778], [-77.966223, 39.607435], [-77.962092, 39.608702], [-77.957642, 39.608614], [-77.952104, 39.606358], [-77.950599, 39.603944], [-77.950916, 39.601163], [-77.952152, 39.597272], [-77.951955, 39.592709], [-77.949836, 39.58711], [-77.946182, 39.584814], [-77.94215, 39.584933], [-77.93905, 39.587139], [-77.936371, 39.594508], [-77.935861, 39.602017], [-77.93545, 39.608076], [-77.938362, 39.61258], [-77.944133, 39.614617], [-77.944622, 39.616772], [-77.942625, 39.618274], [-77.94194, 39.61879], [-77.937492, 39.61915], [-77.932862, 39.617676], [-77.928738, 39.613908], [-77.925988, 39.607642], [-77.925902, 39.607553], [-77.923298, 39.604852], [-77.916836, 39.602942], [-77.91641, 39.602816], [-77.909442, 39.601451], [-77.888477, 39.597343], [-77.885077, 39.597937], [-77.882977, 39.598828], [-77.881823, 39.600039], [-77.880993, 39.602852], [-77.88111, 39.606214], [-77.881936, 39.608112], [-77.886959, 39.613329], [-77.887017, 39.614518], [-77.885124, 39.615775], [-77.874718, 39.614293], [-77.868679, 39.611138], [-77.866761, 39.610564], [-77.86265, 39.609333], [-77.8578, 39.60788], [-77.853436, 39.607117], [-77.846872, 39.607202], [-77.842785, 39.607255], [-77.838008, 39.606125], [-77.833568, 39.602936], [-77.831813, 39.601105], [-77.831647, 39.600296], [-77.829753, 39.59105], [-77.829814, 39.587288], [-77.830229, 39.584647], [-77.830233, 39.584625], [-77.830775, 39.581178], [-77.832303, 39.574818], [-77.833217, 39.571016], [-77.834733, 39.568754], [-77.83633, 39.56637], [-77.842174, 39.564333], [-77.855847, 39.564607], [-77.86485, 39.563642], [-77.865734, 39.563547], [-77.868997, 39.563709], [-77.872723, 39.563895], [-77.878451, 39.563493], [-77.880651, 39.562617], [-77.886135, 39.560432], [-77.887968, 39.559198], [-77.88801, 39.559127], [-77.888648, 39.558054], [-77.888945, 39.55595], [-77.886436, 39.551947], [-77.87153, 39.544278], [-77.865351, 39.538381], [-77.864434, 39.536483], [-77.864315, 39.534813], [-77.865078, 39.528226], [-77.866138, 39.524727], [-77.866518, 39.520039], [-77.866132, 39.517661], [-77.86494, 39.516383], [-77.86368, 39.515032], [-77.860195, 39.514325], [-77.850747, 39.515403], [-77.84192, 39.51847], [-77.840651, 39.520941], [-77.840536, 39.529196], [-77.839061, 39.531117], [-77.836935, 39.53217], [-77.833509, 39.532628], [-77.827188, 39.530458], [-77.825357, 39.529177], [-77.823762, 39.525907], [-77.823555, 39.524077], [-77.82565, 39.516895], [-77.829045, 39.514425], [-77.845103, 39.505845], [-77.847611, 39.503351], [-77.848112, 39.502093], [-77.847639, 39.500698], [-77.845666, 39.498628], [-77.831909, 39.494744], [-77.825499, 39.494258], [-77.820781, 39.4939], [-77.807821, 39.490241], [-77.80183, 39.489395], [-77.795631, 39.489623], [-77.792913, 39.490443], [-77.791765, 39.490789], [-77.789757, 39.492207], [-77.786539, 39.496598], [-77.784442, 39.498061], [-77.781608, 39.499067], [-77.774374, 39.4995], [-77.77095, 39.499087], [-77.768783, 39.49796], [-77.768442, 39.497783], [-77.765993, 39.495724], [-77.765403, 39.494397], [-77.765427, 39.49417], [-77.765551, 39.493025], [-77.765645, 39.492922], [-77.767087, 39.491333], [-77.768044, 39.490839], [-77.769125, 39.490281], [-77.771723, 39.489207], [-77.78176, 39.487128], [-77.788519, 39.485048], [-77.795485, 39.481824], [-77.796695, 39.480498], [-77.797787, 39.47876], [-77.798201, 39.475719], [-77.796755, 39.472448], [-77.795634, 39.471259], [-77.789645, 39.467827], [-77.778522, 39.463663], [-77.777815, 39.462816], [-77.777815, 39.461924], [-77.779202, 39.460392], [-77.780471, 39.459867], [-77.783539, 39.460073], [-77.793157, 39.462042], [-77.796196, 39.461722], [-77.798468, 39.46067], [-77.799294, 39.458383], [-77.798144, 39.455981], [-77.7931, 39.451406], [-77.78611, 39.447197], [-77.78558, 39.445367], [-77.786052, 39.444224], [-77.78856, 39.442829], [-77.80086, 39.440841], [-77.802866, 39.439285], [-77.803249, 39.437136], [-77.802684, 39.436203], [-77.802542, 39.435969], [-77.798855, 39.433339], [-77.797894, 39.432907], [-77.794615, 39.431431], [-77.792751, 39.430593], [-77.787266, 39.429335], [-77.77485, 39.427845], [-77.764726, 39.428364], [-77.763319, 39.428436], [-77.75872, 39.42681], [-77.754681, 39.424658], [-77.75309, 39.423262], [-77.75268, 39.420174], [-77.747478, 39.41093], [-77.740012, 39.401694], [-77.736409, 39.392684], [-77.735905, 39.389665], [-77.736317, 39.387744], [-77.736901, 39.387238], [-77.738084, 39.386211], [-77.740765, 39.385409], [-77.749715, 39.384171], [-77.752209, 39.383328], [-77.753389, 39.382094], [-77.753804, 39.379624], [-77.753274, 39.37832], [-77.744144, 39.365139], [-77.744108, 39.364445], [-77.743874, 39.359947], [-77.74593, 39.353221], [-77.750387, 39.34945], [-77.759315, 39.345314], [-77.760435, 39.344171], [-77.761084, 39.342524], [-77.761115, 39.339757], [-77.759615, 39.337331], [-77.757873, 39.335769], [-77.755789, 39.333899], [-77.754379, 39.333432], [-77.735009, 39.327015], [-77.730914, 39.324684], [-77.730533, 39.324359], [-77.727989, 39.322187], [-77.727379, 39.321666], [-77.726856, 39.321643], [-77.719519, 39.321314], [-77.719946, 39.319693], [-77.721638, 39.318494], [-77.730047, 39.315666], [-77.734899, 39.312409], [-77.747287, 39.295001], [-77.750267, 39.289284], [-77.752726, 39.283373], [-77.753357, 39.280331], [-77.75306, 39.277971], [-77.753105, 39.27734], [-77.755193, 39.275191], [-77.755698, 39.274575], [-77.758412, 39.269197], [-77.758733, 39.268114], [-77.761217, 39.263721], [-77.761768, 39.263031], [-77.762194, 39.261214], [-77.762231, 39.261057], [-77.762844, 39.258445], [-77.766525, 39.25734], [-77.768, 39.257657], [-77.768992, 39.256417], [-77.770281, 39.255977], [-77.770669, 39.255262], [-77.770876, 39.24976], [-77.770589, 39.249393], [-77.767277, 39.24938], [-77.77094, 39.238222], [-77.771415, 39.236776], [-77.778068, 39.229305], [-77.781268, 39.226909], [-77.78364, 39.224081], [-77.788763, 39.215243], [-77.793631, 39.210125], [-77.793961, 39.208815], [-77.794596, 39.206299], [-77.79819, 39.200658], [-77.798478, 39.199574], [-77.797714, 39.19424], [-77.797943, 39.192826], [-77.800015, 39.188723], [-77.804712, 39.179419], [-77.804415, 39.178045], [-77.805099, 39.174222], [-77.805991, 39.172421], [-77.806395, 39.171924], [-77.809125, 39.168567], [-77.811295, 39.167563], [-77.813206, 39.165023], [-77.818446, 39.155279], [-77.821413, 39.15241], [-77.822874, 39.147755], [-77.82299, 39.145451], [-77.82223, 39.142734], [-77.822182, 39.139985], [-77.828157, 39.132329], [-77.828302, 39.132422], [-77.849083, 39.145831], [-77.856029, 39.150314], [-77.860884, 39.153446], [-77.860929, 39.153475], [-77.919407, 39.191209], [-77.919412, 39.191212], [-77.991326, 39.237615], [-78.007336, 39.247946], [-78.032841, 39.264403], [-78.033185, 39.264621], [-78.033187, 39.264622], [-78.060243, 39.281752], [-78.060243, 39.654737], [-78.051932, 39.648207]]]}}]}